<?xml version='1.0' encoding='UTF-8'?>
<gpx version="1.1" creator="https://www.komoot.de" xmlns="http://www.topografix.com/GPX/1/1" xmlns:xsi="http://www.w3.org/2001/XMLSchema-instance" xsi:schemaLocation="http://www.topografix.com/GPX/1/1 http://www.topografix.com/GPX/1/1/gpx.xsd">
  <metadata>
    <name>anillo_picos_day4</name>
    <author>
      <link href="https://www.komoot.de">
        <text>komoot</text>
        <type>text/html</type>
      </link>
    </author>
  </metadata>
  <wpt lat="43.235317" lon="-4.819803">
    <name>Bulnes (Le village)</name>
    <sym>Shopping Center</sym>
  </wpt>
  <trk>
    <name>anillo_picos_day4</name>
    <type>hike</type>
    <trkseg>
      <trkpt lat="43.202992" lon="-4.821446">
        <ele>1952.684539</ele>
        <time>2026-07-14T15:16:47.104Z</time>
      </trkpt>
      <trkpt lat="43.203083" lon="-4.821737">
        <ele>1952.684539</ele>
        <time>2026-07-14T15:17:18.008Z</time>
      </trkpt>
      <trkpt lat="43.203196" lon="-4.822309">
        <ele>1952.684539</ele>
        <time>2026-07-14T15:18:18.978Z</time>
      </trkpt>
      <trkpt lat="43.203301" lon="-4.822440">
        <ele>1952.684539</ele>
        <time>2026-07-14T15:18:39.970Z</time>
      </trkpt>
      <trkpt lat="43.203383" lon="-4.822458">
        <ele>1952.684539</ele>
        <time>2026-07-14T15:18:53.248Z</time>
      </trkpt>
      <trkpt lat="43.203428" lon="-4.822552">
        <ele>1953.459206</ele>
        <time>2026-07-14T15:19:06.585Z</time>
      </trkpt>
      <trkpt lat="43.203434" lon="-4.822670">
        <ele>1954.407599</ele>
        <time>2026-07-14T15:19:20.704Z</time>
      </trkpt>
      <trkpt lat="43.203496" lon="-4.822738">
        <ele>1955.280709</ele>
        <time>2026-07-14T15:19:33.852Z</time>
      </trkpt>
      <trkpt lat="43.203663" lon="-4.822802">
        <ele>1957.187930</ele>
        <time>2026-07-14T15:20:03.436Z</time>
      </trkpt>
      <trkpt lat="43.203633" lon="-4.822901">
        <ele>1958.047542</ele>
        <time>2026-07-14T15:20:17.411Z</time>
      </trkpt>
      <trkpt lat="43.203666" lon="-4.822939">
        <ele>1958.521441</ele>
        <time>2026-07-14T15:20:25.357Z</time>
      </trkpt>
      <trkpt lat="43.203699" lon="-4.823054">
        <ele>1959.512353</ele>
        <time>2026-07-14T15:20:41.865Z</time>
      </trkpt>
      <trkpt lat="43.203740" lon="-4.823083">
        <ele>1960.019739</ele>
        <time>2026-07-14T15:20:50.695Z</time>
      </trkpt>
      <trkpt lat="43.203884" lon="-4.823079">
        <ele>1961.603973</ele>
        <time>2026-07-14T15:21:18.824Z</time>
      </trkpt>
      <trkpt lat="43.203984" lon="-4.823154">
        <ele>1962.857550</ele>
        <time>2026-07-14T15:21:42.137Z</time>
      </trkpt>
      <trkpt lat="43.204028" lon="-4.823220">
        <ele>1963.574660</ele>
        <time>2026-07-14T15:21:55.897Z</time>
      </trkpt>
      <trkpt lat="43.204163" lon="-4.823639">
        <ele>1967.247607</ele>
        <time>2026-07-14T15:23:05.858Z</time>
      </trkpt>
      <trkpt lat="43.204239" lon="-4.823709">
        <ele>1968.254484</ele>
        <time>2026-07-14T15:23:24.542Z</time>
      </trkpt>
      <trkpt lat="43.204441" lon="-4.824047">
        <ele>1971.758852</ele>
        <time>2026-07-14T15:24:31.084Z</time>
      </trkpt>
      <trkpt lat="43.204529" lon="-4.824272">
        <ele>1974.097742</ele>
        <time>2026-07-14T15:25:09.635Z</time>
      </trkpt>
      <trkpt lat="43.204570" lon="-4.824455">
        <ele>1975.967386</ele>
        <time>2026-07-14T15:25:38.192Z</time>
      </trkpt>
      <trkpt lat="43.204665" lon="-4.824502">
        <ele>1977.320395</ele>
        <time>2026-07-14T15:25:58.980Z</time>
      </trkpt>
      <trkpt lat="43.204697" lon="-4.824554">
        <ele>1977.984988</ele>
        <time>2026-07-14T15:26:08.999Z</time>
      </trkpt>
      <trkpt lat="43.204773" lon="-4.824860">
        <ele>1981.142006</ele>
        <time>2026-07-14T15:26:57.221Z</time>
      </trkpt>
      <trkpt lat="43.204685" lon="-4.824964">
        <ele>1982.698136</ele>
        <time>2026-07-14T15:27:21.332Z</time>
      </trkpt>
      <trkpt lat="43.204695" lon="-4.825360">
        <ele>1986.567681</ele>
        <time>2026-07-14T15:28:21.356Z</time>
      </trkpt>
      <trkpt lat="43.205032" lon="-4.825767">
        <ele>1992.582916</ele>
        <time>2026-07-14T15:29:54.648Z</time>
      </trkpt>
      <trkpt lat="43.205182" lon="-4.825830">
        <ele>1994.684630</ele>
        <time>2026-07-14T15:30:26.976Z</time>
      </trkpt>
      <trkpt lat="43.205261" lon="-4.826068">
        <ele>1997.539896</ele>
        <time>2026-07-14T15:31:05.837Z</time>
      </trkpt>
      <trkpt lat="43.205415" lon="-4.826248">
        <ele>2001.465347</ele>
        <time>2026-07-14T15:31:46.861Z</time>
      </trkpt>
      <trkpt lat="43.205686" lon="-4.826760">
        <ele>2010.414244</ele>
        <time>2026-07-14T15:33:24.936Z</time>
      </trkpt>
      <trkpt lat="43.205956" lon="-4.826963">
        <ele>2016.388148</ele>
        <time>2026-07-14T15:34:39.703Z</time>
      </trkpt>
      <trkpt lat="43.206214" lon="-4.827317">
        <ele>2023.468045</ele>
        <time>2026-07-14T15:36:20.537Z</time>
      </trkpt>
      <trkpt lat="43.206372" lon="-4.827325">
        <ele>2026.535797</ele>
        <time>2026-07-14T15:37:08.199Z</time>
      </trkpt>
      <trkpt lat="43.206487" lon="-4.827761">
        <ele>2034.300709</ele>
        <time>2026-07-14T15:38:57.971Z</time>
      </trkpt>
      <trkpt lat="43.206539" lon="-4.828133">
        <ele>2043.630052</ele>
        <time>2026-07-14T15:40:35.488Z</time>
      </trkpt>
      <trkpt lat="43.206905" lon="-4.829231">
        <ele>2073.367531</ele>
        <time>2026-07-14T15:46:34.914Z</time>
      </trkpt>
      <trkpt lat="43.207110" lon="-4.829443">
        <ele>2082.042216</ele>
        <time>2026-07-14T15:48:25.085Z</time>
      </trkpt>
      <trkpt lat="43.207432" lon="-4.829647">
        <ele>2093.977445</ele>
        <time>2026-07-14T15:50:44.207Z</time>
      </trkpt>
      <trkpt lat="43.207813" lon="-4.829937">
        <ele>2108.291179</ele>
        <time>2026-07-14T15:53:17.265Z</time>
      </trkpt>
      <trkpt lat="43.208005" lon="-4.829924">
        <ele>2114.606396</ele>
        <time>2026-07-14T15:54:28.898Z</time>
      </trkpt>
      <trkpt lat="43.208194" lon="-4.829755">
        <ele>2122.017669</ele>
        <time>2026-07-14T15:55:53.045Z</time>
      </trkpt>
      <trkpt lat="43.208340" lon="-4.829547">
        <ele>2128.932172</ele>
        <time>2026-07-14T15:57:09.313Z</time>
      </trkpt>
      <trkpt lat="43.208447" lon="-4.829460">
        <ele>2133.018229</ele>
        <time>2026-07-14T15:57:54.811Z</time>
      </trkpt>
      <trkpt lat="43.208484" lon="-4.829430">
        <ele>2134.430138</ele>
        <time>2026-07-14T15:58:10.069Z</time>
      </trkpt>
      <trkpt lat="43.208505" lon="-4.829449">
        <ele>2135.256529</ele>
        <time>2026-07-14T15:58:19.448Z</time>
      </trkpt>
      <trkpt lat="43.208492" lon="-4.829580">
        <ele>2138.422208</ele>
        <time>2026-07-14T15:58:45.827Z</time>
      </trkpt>
      <trkpt lat="43.208585" lon="-4.829796">
        <ele>2144.429220</ele>
        <time>2026-07-14T15:59:35.878Z</time>
      </trkpt>
      <trkpt lat="43.208578" lon="-4.829848">
        <ele>2145.695394</ele>
        <time>2026-07-14T15:59:50.670Z</time>
      </trkpt>
      <trkpt lat="43.208483" lon="-4.829977">
        <ele>2150.086422</ele>
        <time>2026-07-14T16:00:40.839Z</time>
      </trkpt>
      <trkpt lat="43.208275" lon="-4.830395">
        <ele>2161.392267</ele>
        <time>2026-07-14T16:03:02.747Z</time>
      </trkpt>
      <trkpt lat="43.208122" lon="-4.830796">
        <ele>2171.419659</ele>
        <time>2026-07-14T16:05:24.403Z</time>
      </trkpt>
      <trkpt lat="43.208123" lon="-4.830935">
        <ele>2174.499235</ele>
        <time>2026-07-14T16:06:08.412Z</time>
      </trkpt>
      <trkpt lat="43.208054" lon="-4.831177">
        <ele>2180.256152</ele>
        <time>2026-07-14T16:07:24.842Z</time>
      </trkpt>
      <trkpt lat="43.208047" lon="-4.831302">
        <ele>2183.033585</ele>
        <time>2026-07-14T16:07:59.018Z</time>
      </trkpt>
      <trkpt lat="43.207982" lon="-4.831341">
        <ele>2185.189934</ele>
        <time>2026-07-14T16:08:24.444Z</time>
      </trkpt>
      <trkpt lat="43.207934" lon="-4.831506">
        <ele>2189.125775</ele>
        <time>2026-07-14T16:09:09.711Z</time>
      </trkpt>
      <trkpt lat="43.207917" lon="-4.831840">
        <ele>2196.543301</ele>
        <time>2026-07-14T16:10:29.877Z</time>
      </trkpt>
      <trkpt lat="43.208022" lon="-4.832272">
        <ele>2206.176167</ele>
        <time>2026-07-14T16:12:06.296Z</time>
      </trkpt>
      <trkpt lat="43.207976" lon="-4.832425">
        <ele>2207.190442</ele>
        <time>2026-07-14T16:12:36.897Z</time>
      </trkpt>
      <trkpt lat="43.207975" lon="-4.832866">
        <ele>2209.893059</ele>
        <time>2026-07-14T16:13:45.399Z</time>
      </trkpt>
      <trkpt lat="43.207950" lon="-4.833006">
        <ele>2210.776403</ele>
        <time>2026-07-14T16:14:04.367Z</time>
      </trkpt>
      <trkpt lat="43.208060" lon="-4.833328">
        <ele>2212.955721</ele>
        <time>2026-07-14T16:14:49.041Z</time>
      </trkpt>
      <trkpt lat="43.208251" lon="-4.833577">
        <ele>2215.171017</ele>
        <time>2026-07-14T16:15:30.567Z</time>
      </trkpt>
      <trkpt lat="43.208457" lon="-4.833781">
        <ele>2217.307116</ele>
        <time>2026-07-14T16:16:07.100Z</time>
      </trkpt>
      <trkpt lat="43.208714" lon="-4.834007">
        <ele>2219.873726</ele>
        <time>2026-07-14T16:16:49.808Z</time>
      </trkpt>
      <trkpt lat="43.208885" lon="-4.833952">
        <ele>2221.344928</ele>
        <time>2026-07-14T16:17:14.309Z</time>
      </trkpt>
      <trkpt lat="43.208969" lon="-4.833968">
        <ele>2222.040459</ele>
        <time>2026-07-14T16:17:26.129Z</time>
      </trkpt>
      <trkpt lat="43.209264" lon="-4.834606">
        <ele>2226.556942</ele>
        <time>2026-07-14T16:18:45.966Z</time>
      </trkpt>
      <trkpt lat="43.209437" lon="-4.834824">
        <ele>2228.483420</ele>
        <time>2026-07-14T16:19:24.385Z</time>
      </trkpt>
      <trkpt lat="43.209499" lon="-4.835270">
        <ele>2231.197526</ele>
        <time>2026-07-14T16:20:23.153Z</time>
      </trkpt>
      <trkpt lat="43.209504" lon="-4.835546">
        <ele>2232.847876</ele>
        <time>2026-07-14T16:21:02.774Z</time>
      </trkpt>
      <trkpt lat="43.209410" lon="-4.835733">
        <ele>2234.205773</ele>
        <time>2026-07-14T16:21:38.898Z</time>
      </trkpt>
      <trkpt lat="43.209116" lon="-4.835849">
        <ele>2237.015956</ele>
        <time>2026-07-14T16:22:52.201Z</time>
      </trkpt>
      <trkpt lat="43.209000" lon="-4.836010">
        <ele>2238.855440</ele>
        <time>2026-07-14T16:23:33.517Z</time>
      </trkpt>
      <trkpt lat="43.208844" lon="-4.836271">
        <ele>2241.598076</ele>
        <time>2026-07-14T16:24:36.216Z</time>
      </trkpt>
      <trkpt lat="43.208758" lon="-4.836478">
        <ele>2243.534106</ele>
        <time>2026-07-14T16:25:20.173Z</time>
      </trkpt>
      <trkpt lat="43.208701" lon="-4.836705">
        <ele>2245.484981</ele>
        <time>2026-07-14T16:26:04.219Z</time>
      </trkpt>
      <trkpt lat="43.208705" lon="-4.837197">
        <ele>2249.482967</ele>
        <time>2026-07-14T16:27:23.117Z</time>
      </trkpt>
      <trkpt lat="43.208816" lon="-4.837741">
        <ele>2254.073169</ele>
        <time>2026-07-14T16:28:32.720Z</time>
      </trkpt>
      <trkpt lat="43.208875" lon="-4.837930">
        <ele>2255.743809</ele>
        <time>2026-07-14T16:28:53.869Z</time>
      </trkpt>
      <trkpt lat="43.208865" lon="-4.838053">
        <ele>2254.932052</ele>
        <time>2026-07-14T16:29:06.475Z</time>
      </trkpt>
      <trkpt lat="43.208893" lon="-4.838238">
        <ele>2253.071242</ele>
        <time>2026-07-14T16:29:27.023Z</time>
      </trkpt>
      <trkpt lat="43.209011" lon="-4.838444">
        <ele>2250.490933</ele>
        <time>2026-07-14T16:29:57.686Z</time>
      </trkpt>
      <trkpt lat="43.209050" lon="-4.838725">
        <ele>2247.673829</ele>
        <time>2026-07-14T16:30:32.778Z</time>
      </trkpt>
      <trkpt lat="43.209068" lon="-4.838837">
        <ele>2246.544322</ele>
        <time>2026-07-14T16:30:47.318Z</time>
      </trkpt>
      <trkpt lat="43.209106" lon="-4.839068">
        <ele>2244.212139</ele>
        <time>2026-07-14T16:31:17.757Z</time>
      </trkpt>
      <trkpt lat="43.209074" lon="-4.839208">
        <ele>2242.767167</ele>
        <time>2026-07-14T16:31:37.218Z</time>
      </trkpt>
      <trkpt lat="43.209165" lon="-4.839397">
        <ele>2240.536376</ele>
        <time>2026-07-14T16:32:08.490Z</time>
      </trkpt>
      <trkpt lat="43.209229" lon="-4.839590">
        <ele>2238.448181</ele>
        <time>2026-07-14T16:32:38.973Z</time>
      </trkpt>
      <trkpt lat="43.209238" lon="-4.839839">
        <ele>2235.992944</ele>
        <time>2026-07-14T16:33:15.878Z</time>
      </trkpt>
      <trkpt lat="43.209520" lon="-4.840406">
        <ele>2228.181449</ele>
        <time>2026-07-14T16:34:56.268Z</time>
      </trkpt>
      <trkpt lat="43.209575" lon="-4.840684">
        <ele>2224.097628</ele>
        <time>2026-07-14T16:35:38.276Z</time>
      </trkpt>
      <trkpt lat="43.209963" lon="-4.841096">
        <ele>2214.554381</ele>
        <time>2026-07-14T16:37:10.751Z</time>
      </trkpt>
      <trkpt lat="43.210017" lon="-4.841469">
        <ele>2209.163091</ele>
        <time>2026-07-14T16:38:01.533Z</time>
      </trkpt>
      <trkpt lat="43.210141" lon="-4.841639">
        <ele>2205.753421</ele>
        <time>2026-07-14T16:38:34.428Z</time>
      </trkpt>
      <trkpt lat="43.210579" lon="-4.842085">
        <ele>2194.899312</ele>
        <time>2026-07-14T16:40:21.613Z</time>
      </trkpt>
      <trkpt lat="43.210616" lon="-4.842646">
        <ele>2185.607286</ele>
        <time>2026-07-14T16:41:47.491Z</time>
      </trkpt>
      <trkpt lat="43.210898" lon="-4.843391">
        <ele>2171.759300</ele>
        <time>2026-07-14T16:43:59.547Z</time>
      </trkpt>
      <trkpt lat="43.210895" lon="-4.843762">
        <ele>2165.638965</ele>
        <time>2026-07-14T16:44:58.884Z</time>
      </trkpt>
      <trkpt lat="43.210934" lon="-4.844182">
        <ele>2158.654710</ele>
        <time>2026-07-14T16:46:07.159Z</time>
      </trkpt>
      <trkpt lat="43.211004" lon="-4.844496">
        <ele>2153.290262</ele>
        <time>2026-07-14T16:46:59.715Z</time>
      </trkpt>
      <trkpt lat="43.210998" lon="-4.844745">
        <ele>2149.260124</ele>
        <time>2026-07-14T16:47:38.987Z</time>
      </trkpt>
      <trkpt lat="43.211027" lon="-4.844976">
        <ele>2145.468334</ele>
        <time>2026-07-14T16:48:15.270Z</time>
      </trkpt>
      <trkpt lat="43.211189" lon="-4.845250">
        <ele>2139.760989</ele>
        <time>2026-07-14T16:49:09.025Z</time>
      </trkpt>
      <trkpt lat="43.211284" lon="-4.845607">
        <ele>2133.613133</ele>
        <time>2026-07-14T16:50:06.042Z</time>
      </trkpt>
      <trkpt lat="43.211334" lon="-4.846124">
        <ele>2125.176640</ele>
        <time>2026-07-14T16:51:24.229Z</time>
      </trkpt>
      <trkpt lat="43.211531" lon="-4.846703">
        <ele>2114.772270</ele>
        <time>2026-07-14T16:53:00.574Z</time>
      </trkpt>
      <trkpt lat="43.211507" lon="-4.847042">
        <ele>2108.942585</ele>
        <time>2026-07-14T16:53:51.619Z</time>
      </trkpt>
      <trkpt lat="43.212037" lon="-4.847958">
        <ele>2088.924321</ele>
        <time>2026-07-14T16:56:55.192Z</time>
      </trkpt>
      <trkpt lat="43.212583" lon="-4.848666">
        <ele>2072.363316</ele>
        <time>2026-07-14T16:59:49.730Z</time>
      </trkpt>
      <trkpt lat="43.212707" lon="-4.849179">
        <ele>2067.134353</ele>
        <time>2026-07-14T17:01:15.150Z</time>
      </trkpt>
      <trkpt lat="43.212734" lon="-4.849522">
        <ele>2063.796634</ele>
        <time>2026-07-14T17:02:04.149Z</time>
      </trkpt>
      <trkpt lat="43.212835" lon="-4.849809">
        <ele>2060.713252</ele>
        <time>2026-07-14T17:02:45.001Z</time>
      </trkpt>
      <trkpt lat="43.212895" lon="-4.850116">
        <ele>2057.638190</ele>
        <time>2026-07-14T17:03:23.380Z</time>
      </trkpt>
      <trkpt lat="43.212998" lon="-4.850389">
        <ele>2054.664088</ele>
        <time>2026-07-14T17:03:58.256Z</time>
      </trkpt>
      <trkpt lat="43.212928" lon="-4.850607">
        <ele>2052.359388</ele>
        <time>2026-07-14T17:04:23.557Z</time>
      </trkpt>
      <trkpt lat="43.212945" lon="-4.850923">
        <ele>2050.204485</ele>
        <time>2026-07-14T17:04:54.823Z</time>
      </trkpt>
      <trkpt lat="43.213066" lon="-4.851086">
        <ele>2051.371774</ele>
        <time>2026-07-14T17:05:20.902Z</time>
      </trkpt>
      <trkpt lat="43.213198" lon="-4.851444">
        <ele>2053.384647</ele>
        <time>2026-07-14T17:06:10.345Z</time>
      </trkpt>
      <trkpt lat="43.213245" lon="-4.851636">
        <ele>2054.400801</ele>
        <time>2026-07-14T17:06:36.956Z</time>
      </trkpt>
      <trkpt lat="43.213266" lon="-4.852618">
        <ele>2059.329644</ele>
        <time>2026-07-14T17:08:53.887Z</time>
      </trkpt>
      <trkpt lat="43.213192" lon="-4.853066">
        <ele>2061.634278</ele>
        <time>2026-07-14T17:09:53.348Z</time>
      </trkpt>
      <trkpt lat="43.213187" lon="-4.853245">
        <ele>2062.005939</ele>
        <time>2026-07-14T17:10:15.418Z</time>
      </trkpt>
      <trkpt lat="43.213301" lon="-4.853503">
        <ele>2060.425627</ele>
        <time>2026-07-14T17:10:49.817Z</time>
      </trkpt>
      <trkpt lat="43.213291" lon="-4.853693">
        <ele>2059.427856</ele>
        <time>2026-07-14T17:11:09.710Z</time>
      </trkpt>
      <trkpt lat="43.213317" lon="-4.853815">
        <ele>2058.762086</ele>
        <time>2026-07-14T17:11:22.318Z</time>
      </trkpt>
      <trkpt lat="43.213537" lon="-4.854362">
        <ele>2055.489712</ele>
        <time>2026-07-14T17:12:31.040Z</time>
      </trkpt>
      <trkpt lat="43.213575" lon="-4.854759">
        <ele>2053.392462</ele>
        <time>2026-07-14T17:13:20.131Z</time>
      </trkpt>
      <trkpt lat="43.213552" lon="-4.855130">
        <ele>2051.442234</ele>
        <time>2026-07-14T17:14:08.826Z</time>
      </trkpt>
      <trkpt lat="43.213604" lon="-4.855371">
        <ele>2050.125775</ele>
        <time>2026-07-14T17:14:43.075Z</time>
      </trkpt>
      <trkpt lat="43.213523" lon="-4.855736">
        <ele>2047.451102</ele>
        <time>2026-07-14T17:15:34.540Z</time>
      </trkpt>
      <trkpt lat="43.213478" lon="-4.855848">
        <ele>2046.410352</ele>
        <time>2026-07-14T17:15:52.116Z</time>
      </trkpt>
      <trkpt lat="43.213391" lon="-4.856466">
        <ele>2041.288280</ele>
        <time>2026-07-14T17:17:13.612Z</time>
      </trkpt>
      <trkpt lat="43.213358" lon="-4.856558">
        <ele>2040.453847</ele>
        <time>2026-07-14T17:17:26.379Z</time>
      </trkpt>
      <trkpt lat="43.213403" lon="-4.856683">
        <ele>2039.319301</ele>
        <time>2026-07-14T17:17:43.845Z</time>
      </trkpt>
      <trkpt lat="43.213343" lon="-4.857005">
        <ele>2036.614665</ele>
        <time>2026-07-14T17:18:23.438Z</time>
      </trkpt>
      <trkpt lat="43.213565" lon="-4.857119">
        <ele>2033.967949</ele>
        <time>2026-07-14T17:19:00.930Z</time>
      </trkpt>
      <trkpt lat="43.213596" lon="-4.857070">
        <ele>2033.439922</ele>
        <time>2026-07-14T17:19:08.016Z</time>
      </trkpt>
      <trkpt lat="43.213698" lon="-4.857095">
        <ele>2032.282984</ele>
        <time>2026-07-14T17:19:23.625Z</time>
      </trkpt>
      <trkpt lat="43.213740" lon="-4.857212">
        <ele>2031.221646</ele>
        <time>2026-07-14T17:19:37.497Z</time>
      </trkpt>
      <trkpt lat="43.213769" lon="-4.857248">
        <ele>2030.784983</ele>
        <time>2026-07-14T17:19:43.258Z</time>
      </trkpt>
      <trkpt lat="43.213810" lon="-4.857299">
        <ele>2030.167066</ele>
        <time>2026-07-14T17:19:51.199Z</time>
      </trkpt>
      <trkpt lat="43.213855" lon="-4.857409">
        <ele>2029.290015</ele>
        <time>2026-07-14T17:20:04.200Z</time>
      </trkpt>
      <trkpt lat="43.213954" lon="-4.857450">
        <ele>2029.517373</ele>
        <time>2026-07-14T17:20:18.371Z</time>
      </trkpt>
      <trkpt lat="43.214053" lon="-4.857432">
        <ele>2029.736936</ele>
        <time>2026-07-14T17:20:32.157Z</time>
      </trkpt>
      <trkpt lat="43.214093" lon="-4.857439">
        <ele>2029.825591</ele>
        <time>2026-07-14T17:20:37.615Z</time>
      </trkpt>
      <trkpt lat="43.214149" lon="-4.857598">
        <ele>2030.108552</ele>
        <time>2026-07-14T17:20:55.165Z</time>
      </trkpt>
      <trkpt lat="43.214093" lon="-4.857439">
        <ele>2030.391512</ele>
        <time>2026-07-14T17:21:12.906Z</time>
      </trkpt>
      <trkpt lat="43.214053" lon="-4.857432">
        <ele>2030.480168</ele>
        <time>2026-07-14T17:21:18.381Z</time>
      </trkpt>
      <trkpt lat="43.213954" lon="-4.857450">
        <ele>2030.699730</ele>
        <time>2026-07-14T17:21:32.299Z</time>
      </trkpt>
      <trkpt lat="43.213855" lon="-4.857409">
        <ele>2030.927089</ele>
        <time>2026-07-14T17:21:46.423Z</time>
      </trkpt>
      <trkpt lat="43.213810" lon="-4.857299">
        <ele>2031.129215</ele>
        <time>2026-07-14T17:21:59.191Z</time>
      </trkpt>
      <trkpt lat="43.213769" lon="-4.857248">
        <ele>2031.250885</ele>
        <time>2026-07-14T17:22:07.160Z</time>
      </trkpt>
      <trkpt lat="43.213740" lon="-4.857212">
        <ele>2031.336865</ele>
        <time>2026-07-14T17:22:12.755Z</time>
      </trkpt>
      <trkpt lat="43.213698" lon="-4.857095">
        <ele>2031.545846</ele>
        <time>2026-07-14T17:22:26.663Z</time>
      </trkpt>
      <trkpt lat="43.213596" lon="-4.857070">
        <ele>2031.773652</ele>
        <time>2026-07-14T17:22:42.061Z</time>
      </trkpt>
      <trkpt lat="43.213698" lon="-4.857095">
        <ele>2032.001457</ele>
        <time>2026-07-14T17:22:57.898Z</time>
      </trkpt>
      <trkpt lat="43.213740" lon="-4.857212">
        <ele>2032.210438</ele>
        <time>2026-07-14T17:23:12.929Z</time>
      </trkpt>
      <trkpt lat="43.213769" lon="-4.857248">
        <ele>2032.296419</ele>
        <time>2026-07-14T17:23:19.393Z</time>
      </trkpt>
      <trkpt lat="43.213810" lon="-4.857299">
        <ele>2032.418089</ele>
        <time>2026-07-14T17:23:28.531Z</time>
      </trkpt>
      <trkpt lat="43.213855" lon="-4.857409">
        <ele>2032.620215</ele>
        <time>2026-07-14T17:23:43.690Z</time>
      </trkpt>
      <trkpt lat="43.213954" lon="-4.857450">
        <ele>2032.847573</ele>
        <time>2026-07-14T17:24:00.916Z</time>
      </trkpt>
      <trkpt lat="43.214053" lon="-4.857432">
        <ele>2033.067135</ele>
        <time>2026-07-14T17:24:18.326Z</time>
      </trkpt>
      <trkpt lat="43.214093" lon="-4.857439">
        <ele>2033.155791</ele>
        <time>2026-07-14T17:24:25.391Z</time>
      </trkpt>
      <trkpt lat="43.214149" lon="-4.857598">
        <ele>2033.784587</ele>
        <time>2026-07-14T17:24:47.830Z</time>
      </trkpt>
      <trkpt lat="43.214367" lon="-4.857837">
        <ele>2035.367518</ele>
        <time>2026-07-14T17:25:36.957Z</time>
      </trkpt>
      <trkpt lat="43.214397" lon="-4.857904">
        <ele>2035.692617</ele>
        <time>2026-07-14T17:25:47.264Z</time>
      </trkpt>
      <trkpt lat="43.214407" lon="-4.858035">
        <ele>2036.237172</ele>
        <time>2026-07-14T17:26:04.128Z</time>
      </trkpt>
      <trkpt lat="43.214450" lon="-4.858081">
        <ele>2036.546475</ele>
        <time>2026-07-14T17:26:13.785Z</time>
      </trkpt>
      <trkpt lat="43.214752" lon="-4.858142">
        <ele>2038.278112</ele>
        <time>2026-07-14T17:27:07.046Z</time>
      </trkpt>
      <trkpt lat="43.215039" lon="-4.858095">
        <ele>2039.917749</ele>
        <time>2026-07-14T17:27:56.226Z</time>
      </trkpt>
      <trkpt lat="43.215250" lon="-4.857965">
        <ele>2041.229827</ele>
        <time>2026-07-14T17:28:35.249Z</time>
      </trkpt>
      <trkpt lat="43.215406" lon="-4.857817">
        <ele>2042.305707</ele>
        <time>2026-07-14T17:29:05.536Z</time>
      </trkpt>
      <trkpt lat="43.215522" lon="-4.857622">
        <ele>2043.346347</ele>
        <time>2026-07-14T17:29:32.617Z</time>
      </trkpt>
      <trkpt lat="43.215607" lon="-4.857527">
        <ele>2042.694761</ele>
        <time>2026-07-14T17:29:47.563Z</time>
      </trkpt>
      <trkpt lat="43.215635" lon="-4.857379">
        <ele>2041.849998</ele>
        <time>2026-07-14T17:30:03.728Z</time>
      </trkpt>
      <trkpt lat="43.215774" lon="-4.857109">
        <ele>2040.023679</ele>
        <time>2026-07-14T17:30:41.336Z</time>
      </trkpt>
      <trkpt lat="43.215846" lon="-4.857071">
        <ele>2039.438880</ele>
        <time>2026-07-14T17:30:53.859Z</time>
      </trkpt>
      <trkpt lat="43.215983" lon="-4.856999">
        <ele>2038.326743</ele>
        <time>2026-07-14T17:31:18.685Z</time>
      </trkpt>
      <trkpt lat="43.216286" lon="-4.856825">
        <ele>2035.836725</ele>
        <time>2026-07-14T17:32:15.224Z</time>
      </trkpt>
      <trkpt lat="43.216293" lon="-4.856726">
        <ele>2035.287214</ele>
        <time>2026-07-14T17:32:27.746Z</time>
      </trkpt>
      <trkpt lat="43.216463" lon="-4.856472">
        <ele>2033.381962</ele>
        <time>2026-07-14T17:33:10.145Z</time>
      </trkpt>
      <trkpt lat="43.216573" lon="-4.856392">
        <ele>2032.438190</ele>
        <time>2026-07-14T17:33:30.184Z</time>
      </trkpt>
      <trkpt lat="43.216644" lon="-4.856275">
        <ele>2031.597054</ele>
        <time>2026-07-14T17:33:47.920Z</time>
      </trkpt>
      <trkpt lat="43.216718" lon="-4.856219">
        <ele>2030.956421</ele>
        <time>2026-07-14T17:34:01.191Z</time>
      </trkpt>
      <trkpt lat="43.216785" lon="-4.856061">
        <ele>2029.946512</ele>
        <time>2026-07-14T17:34:24.126Z</time>
      </trkpt>
      <trkpt lat="43.216928" lon="-4.855888">
        <ele>2030.734371</ele>
        <time>2026-07-14T17:34:55.996Z</time>
      </trkpt>
      <trkpt lat="43.217009" lon="-4.855847">
        <ele>2031.215703</ele>
        <time>2026-07-14T17:35:09.804Z</time>
      </trkpt>
      <trkpt lat="43.216928" lon="-4.855888">
        <ele>2031.697034</ele>
        <time>2026-07-14T17:35:23.242Z</time>
      </trkpt>
      <trkpt lat="43.216785" lon="-4.856061">
        <ele>2032.759891</ele>
        <time>2026-07-14T17:35:52.526Z</time>
      </trkpt>
      <trkpt lat="43.216718" lon="-4.856219">
        <ele>2033.502609</ele>
        <time>2026-07-14T17:36:15.742Z</time>
      </trkpt>
      <trkpt lat="43.216950" lon="-4.856363">
        <ele>2034.922214</ele>
        <time>2026-07-14T17:37:00.182Z</time>
      </trkpt>
      <trkpt lat="43.217110" lon="-4.856252">
        <ele>2035.921762</ele>
        <time>2026-07-14T17:37:36.793Z</time>
      </trkpt>
      <trkpt lat="43.217155" lon="-4.856389">
        <ele>2036.532315</ele>
        <time>2026-07-14T17:38:00.628Z</time>
      </trkpt>
      <trkpt lat="43.217232" lon="-4.856428">
        <ele>2036.989911</ele>
        <time>2026-07-14T17:38:19.025Z</time>
      </trkpt>
      <trkpt lat="43.217282" lon="-4.856534">
        <ele>2037.502927</ele>
        <time>2026-07-14T17:38:39.357Z</time>
      </trkpt>
      <trkpt lat="43.217278" lon="-4.856650">
        <ele>2037.974757</ele>
        <time>2026-07-14T17:38:58.293Z</time>
      </trkpt>
      <trkpt lat="43.217385" lon="-4.856651">
        <ele>2038.571312</ele>
        <time>2026-07-14T17:39:21.411Z</time>
      </trkpt>
      <trkpt lat="43.217369" lon="-4.856755">
        <ele>2039.003171</ele>
        <time>2026-07-14T17:39:37.171Z</time>
      </trkpt>
      <trkpt lat="43.217452" lon="-4.856838">
        <ele>2039.575749</ele>
        <time>2026-07-14T17:39:57.801Z</time>
      </trkpt>
      <trkpt lat="43.217571" lon="-4.856849">
        <ele>2039.469585</ele>
        <time>2026-07-14T17:40:19.634Z</time>
      </trkpt>
      <trkpt lat="43.217658" lon="-4.856744">
        <ele>2038.943391</ele>
        <time>2026-07-14T17:40:39.623Z</time>
      </trkpt>
      <trkpt lat="43.217703" lon="-4.856760">
        <ele>2038.732273</ele>
        <time>2026-07-14T17:40:47.633Z</time>
      </trkpt>
      <trkpt lat="43.217807" lon="-4.856709">
        <ele>2038.230700</ele>
        <time>2026-07-14T17:41:05.637Z</time>
      </trkpt>
      <trkpt lat="43.217867" lon="-4.856752">
        <ele>2037.923283</ele>
        <time>2026-07-14T17:41:16.109Z</time>
      </trkpt>
      <trkpt lat="43.217952" lon="-4.856876">
        <ele>2037.359861</ele>
        <time>2026-07-14T17:41:33.840Z</time>
      </trkpt>
      <trkpt lat="43.218190" lon="-4.857081">
        <ele>2036.083680</ele>
        <time>2026-07-14T17:42:14.259Z</time>
      </trkpt>
      <trkpt lat="43.218504" lon="-4.857119">
        <ele>2034.652107</ele>
        <time>2026-07-14T17:43:04.878Z</time>
      </trkpt>
      <trkpt lat="43.218668" lon="-4.857249">
        <ele>2033.791957</ele>
        <time>2026-07-14T17:43:37.245Z</time>
      </trkpt>
      <trkpt lat="43.218776" lon="-4.857277">
        <ele>2033.292795</ele>
        <time>2026-07-14T17:43:56.067Z</time>
      </trkpt>
      <trkpt lat="43.218907" lon="-4.857260">
        <ele>2032.695201</ele>
        <time>2026-07-14T17:44:18.613Z</time>
      </trkpt>
      <trkpt lat="43.219167" lon="-4.857072">
        <ele>2030.666117</ele>
        <time>2026-07-14T17:45:10.293Z</time>
      </trkpt>
      <trkpt lat="43.219298" lon="-4.857029">
        <ele>2028.572619</ele>
        <time>2026-07-14T17:45:33.230Z</time>
      </trkpt>
      <trkpt lat="43.219490" lon="-4.856890">
        <ele>2025.198640</ele>
        <time>2026-07-14T17:46:09.934Z</time>
      </trkpt>
      <trkpt lat="43.219522" lon="-4.856816">
        <ele>2024.224034</ele>
        <time>2026-07-14T17:46:20.828Z</time>
      </trkpt>
      <trkpt lat="43.219577" lon="-4.856830">
        <ele>2023.354619</ele>
        <time>2026-07-14T17:46:30.541Z</time>
      </trkpt>
      <trkpt lat="43.219617" lon="-4.857122">
        <ele>2019.989414</ele>
        <time>2026-07-14T17:47:07.869Z</time>
      </trkpt>
      <trkpt lat="43.219565" lon="-4.857207">
        <ele>2018.732410</ele>
        <time>2026-07-14T17:47:21.974Z</time>
      </trkpt>
      <trkpt lat="43.219603" lon="-4.857202">
        <ele>2018.139089</ele>
        <time>2026-07-14T17:47:30.502Z</time>
      </trkpt>
      <trkpt lat="43.219603" lon="-4.857301">
        <ele>2017.017786</ele>
        <time>2026-07-14T17:47:46.796Z</time>
      </trkpt>
      <trkpt lat="43.219676" lon="-4.857277">
        <ele>2015.851080</ele>
        <time>2026-07-14T17:48:03.994Z</time>
      </trkpt>
      <trkpt lat="43.219675" lon="-4.857351">
        <ele>2015.012791</ele>
        <time>2026-07-14T17:48:16.124Z</time>
      </trkpt>
      <trkpt lat="43.219726" lon="-4.857381">
        <ele>2014.150369</ele>
        <time>2026-07-14T17:48:26.057Z</time>
      </trkpt>
      <trkpt lat="43.219662" lon="-4.857656">
        <ele>2010.880662</ele>
        <time>2026-07-14T17:49:03.036Z</time>
      </trkpt>
      <trkpt lat="43.219728" lon="-4.857961">
        <ele>2007.277060</ele>
        <time>2026-07-14T17:49:44.091Z</time>
      </trkpt>
      <trkpt lat="43.219721" lon="-4.858162">
        <ele>2004.997880</ele>
        <time>2026-07-14T17:50:09.839Z</time>
      </trkpt>
      <trkpt lat="43.219901" lon="-4.858603">
        <ele>1997.607318</ele>
        <time>2026-07-14T17:51:19.950Z</time>
      </trkpt>
      <trkpt lat="43.220087" lon="-4.858864">
        <ele>1991.914164</ele>
        <time>2026-07-14T17:52:12.000Z</time>
      </trkpt>
      <trkpt lat="43.220217" lon="-4.858870">
        <ele>1989.130527</ele>
        <time>2026-07-14T17:52:39.779Z</time>
      </trkpt>
      <trkpt lat="43.220371" lon="-4.858831">
        <ele>1985.779198</ele>
        <time>2026-07-14T17:53:14.546Z</time>
      </trkpt>
      <trkpt lat="43.220480" lon="-4.858856">
        <ele>1983.414186</ele>
        <time>2026-07-14T17:53:39.192Z</time>
      </trkpt>
      <trkpt lat="43.220646" lon="-4.858998">
        <ele>1979.228004</ele>
        <time>2026-07-14T17:54:22.574Z</time>
      </trkpt>
      <trkpt lat="43.220769" lon="-4.859061">
        <ele>1976.418364</ele>
        <time>2026-07-14T17:54:51.120Z</time>
      </trkpt>
      <trkpt lat="43.220867" lon="-4.859225">
        <ele>1973.110852</ele>
        <time>2026-07-14T17:55:24.171Z</time>
      </trkpt>
      <trkpt lat="43.220887" lon="-4.859346">
        <ele>1971.175930</ele>
        <time>2026-07-14T17:55:43.239Z</time>
      </trkpt>
      <trkpt lat="43.221149" lon="-4.859697">
        <ele>1963.172912</ele>
        <time>2026-07-14T17:56:58.801Z</time>
      </trkpt>
      <trkpt lat="43.221264" lon="-4.859755">
        <ele>1960.315222</ele>
        <time>2026-07-14T17:57:24.080Z</time>
      </trkpt>
      <trkpt lat="43.221333" lon="-4.859724">
        <ele>1958.621803</ele>
        <time>2026-07-14T17:57:39.073Z</time>
      </trkpt>
      <trkpt lat="43.221398" lon="-4.859758">
        <ele>1956.999334</ele>
        <time>2026-07-14T17:57:53.391Z</time>
      </trkpt>
      <trkpt lat="43.221491" lon="-4.859893">
        <ele>1953.841792</ele>
        <time>2026-07-14T17:58:21.433Z</time>
      </trkpt>
      <trkpt lat="43.221608" lon="-4.859984">
        <ele>1950.705037</ele>
        <time>2026-07-14T17:58:49.343Z</time>
      </trkpt>
      <trkpt lat="43.221638" lon="-4.860050">
        <ele>1949.382925</ele>
        <time>2026-07-14T17:59:01.119Z</time>
      </trkpt>
      <trkpt lat="43.221647" lon="-4.860170">
        <ele>1947.332570</ele>
        <time>2026-07-14T17:59:19.633Z</time>
      </trkpt>
      <trkpt lat="43.221715" lon="-4.860215">
        <ele>1945.571746</ele>
        <time>2026-07-14T17:59:35.807Z</time>
      </trkpt>
      <trkpt lat="43.221748" lon="-4.860201">
        <ele>1944.766109</ele>
        <time>2026-07-14T17:59:43.194Z</time>
      </trkpt>
      <trkpt lat="43.221769" lon="-4.860261">
        <ele>1943.634792</ele>
        <time>2026-07-14T17:59:53.769Z</time>
      </trkpt>
      <trkpt lat="43.221850" lon="-4.860275">
        <ele>1941.730613</ele>
        <time>2026-07-14T18:00:11.565Z</time>
      </trkpt>
      <trkpt lat="43.221871" lon="-4.860351">
        <ele>1940.349138</ele>
        <time>2026-07-14T18:00:24.863Z</time>
      </trkpt>
      <trkpt lat="43.222047" lon="-4.860502">
        <ele>1935.507849</ele>
        <time>2026-07-14T18:01:11.390Z</time>
      </trkpt>
      <trkpt lat="43.222157" lon="-4.860179">
        <ele>1929.448080</ele>
        <time>2026-07-14T18:02:08.564Z</time>
      </trkpt>
      <trkpt lat="43.222260" lon="-4.860023">
        <ele>1925.870158</ele>
        <time>2026-07-14T18:02:42.788Z</time>
      </trkpt>
      <trkpt lat="43.222322" lon="-4.860042">
        <ele>1924.388446</ele>
        <time>2026-07-14T18:02:56.876Z</time>
      </trkpt>
      <trkpt lat="43.222383" lon="-4.859899">
        <ele>1921.323747</ele>
        <time>2026-07-14T18:03:24.135Z</time>
      </trkpt>
      <trkpt lat="43.222621" lon="-4.859671">
        <ele>1913.550485</ele>
        <time>2026-07-14T18:04:30.223Z</time>
      </trkpt>
      <trkpt lat="43.222680" lon="-4.859686">
        <ele>1911.943528</ele>
        <time>2026-07-14T18:04:44.214Z</time>
      </trkpt>
      <trkpt lat="43.222704" lon="-4.859797">
        <ele>1909.684004</ele>
        <time>2026-07-14T18:05:03.661Z</time>
      </trkpt>
      <trkpt lat="43.222746" lon="-4.859801">
        <ele>1908.556503</ele>
        <time>2026-07-14T18:05:13.607Z</time>
      </trkpt>
      <trkpt lat="43.222798" lon="-4.859712">
        <ele>1906.330301</ele>
        <time>2026-07-14T18:05:32.834Z</time>
      </trkpt>
      <trkpt lat="43.222836" lon="-4.859739">
        <ele>1905.184313</ele>
        <time>2026-07-14T18:05:42.722Z</time>
      </trkpt>
      <trkpt lat="43.222920" lon="-4.859911">
        <ele>1901.143598</ele>
        <time>2026-07-14T18:06:18.167Z</time>
      </trkpt>
      <trkpt lat="43.223002" lon="-4.859937">
        <ele>1898.889714</ele>
        <time>2026-07-14T18:06:38.018Z</time>
      </trkpt>
      <trkpt lat="43.223041" lon="-4.859908">
        <ele>1897.701789</ele>
        <time>2026-07-14T18:06:48.447Z</time>
      </trkpt>
      <trkpt lat="43.223124" lon="-4.859984">
        <ele>1895.029600</ele>
        <time>2026-07-14T18:07:12.237Z</time>
      </trkpt>
      <trkpt lat="43.223182" lon="-4.859993">
        <ele>1893.466413</ele>
        <time>2026-07-14T18:07:26.459Z</time>
      </trkpt>
      <trkpt lat="43.223266" lon="-4.859945">
        <ele>1891.029590</ele>
        <time>2026-07-14T18:07:48.410Z</time>
      </trkpt>
      <trkpt lat="43.223415" lon="-4.860084">
        <ele>1886.204559</ele>
        <time>2026-07-14T18:08:32.665Z</time>
      </trkpt>
      <trkpt lat="43.223481" lon="-4.860102">
        <ele>1884.402457</ele>
        <time>2026-07-14T18:08:49.266Z</time>
      </trkpt>
      <trkpt lat="43.223541" lon="-4.860043">
        <ele>1882.425682</ele>
        <time>2026-07-14T18:09:07.132Z</time>
      </trkpt>
      <trkpt lat="43.223650" lon="-4.860037">
        <ele>1879.504222</ele>
        <time>2026-07-14T18:09:34.027Z</time>
      </trkpt>
      <trkpt lat="43.223811" lon="-4.859918">
        <ele>1874.601541</ele>
        <time>2026-07-14T18:10:18.489Z</time>
      </trkpt>
      <trkpt lat="43.224007" lon="-4.859528">
        <ele>1865.251364</ele>
        <time>2026-07-14T18:11:41.741Z</time>
      </trkpt>
      <trkpt lat="43.224025" lon="-4.859450">
        <ele>1863.636600</ele>
        <time>2026-07-14T18:11:56.102Z</time>
      </trkpt>
      <trkpt lat="43.224068" lon="-4.859423">
        <ele>1862.355845</ele>
        <time>2026-07-14T18:12:07.669Z</time>
      </trkpt>
      <trkpt lat="43.224152" lon="-4.859284">
        <ele>1858.791884</ele>
        <time>2026-07-14T18:12:39.509Z</time>
      </trkpt>
      <trkpt lat="43.224256" lon="-4.859197">
        <ele>1855.493017</ele>
        <time>2026-07-14T18:13:09.143Z</time>
      </trkpt>
      <trkpt lat="43.224525" lon="-4.859076">
        <ele>1847.825884</ele>
        <time>2026-07-14T18:14:17.920Z</time>
      </trkpt>
      <trkpt lat="43.224592" lon="-4.859014">
        <ele>1845.637216</ele>
        <time>2026-07-14T18:14:37.049Z</time>
      </trkpt>
      <trkpt lat="43.224682" lon="-4.858834">
        <ele>1841.328870</ele>
        <time>2026-07-14T18:15:14.747Z</time>
      </trkpt>
      <trkpt lat="43.224782" lon="-4.858755">
        <ele>1838.203710</ele>
        <time>2026-07-14T18:15:41.506Z</time>
      </trkpt>
      <trkpt lat="43.224885" lon="-4.858746">
        <ele>1835.408350</ele>
        <time>2026-07-14T18:16:05.488Z</time>
      </trkpt>
      <trkpt lat="43.225241" lon="-4.858535">
        <ele>1824.704147</ele>
        <time>2026-07-14T18:17:32.013Z</time>
      </trkpt>
      <trkpt lat="43.225372" lon="-4.858587">
        <ele>1820.500759</ele>
        <time>2026-07-14T18:18:02.166Z</time>
      </trkpt>
      <trkpt lat="43.225427" lon="-4.858549">
        <ele>1818.602750</ele>
        <time>2026-07-14T18:18:16.018Z</time>
      </trkpt>
      <trkpt lat="43.225587" lon="-4.858563">
        <ele>1813.660980</ele>
        <time>2026-07-14T18:18:52.972Z</time>
      </trkpt>
      <trkpt lat="43.225672" lon="-4.858511">
        <ele>1810.792461</ele>
        <time>2026-07-14T18:19:15.037Z</time>
      </trkpt>
      <trkpt lat="43.225936" lon="-4.858122">
        <ele>1798.853020</ele>
        <time>2026-07-14T18:20:52.199Z</time>
      </trkpt>
      <trkpt lat="43.226068" lon="-4.858059">
        <ele>1794.545303</ele>
        <time>2026-07-14T18:21:28.929Z</time>
      </trkpt>
      <trkpt lat="43.226123" lon="-4.858033">
        <ele>1792.752257</ele>
        <time>2026-07-14T18:21:44.261Z</time>
      </trkpt>
      <trkpt lat="43.226240" lon="-4.857769">
        <ele>1785.812296</ele>
        <time>2026-07-14T18:22:45.217Z</time>
      </trkpt>
      <trkpt lat="43.226338" lon="-4.857669">
        <ele>1782.048124</ele>
        <time>2026-07-14T18:23:18.638Z</time>
      </trkpt>
      <trkpt lat="43.226516" lon="-4.857298">
        <ele>1772.071484</ele>
        <time>2026-07-14T18:24:49.889Z</time>
      </trkpt>
      <trkpt lat="43.226590" lon="-4.857040">
        <ele>1764.712182</ele>
        <time>2026-07-14T18:25:48.177Z</time>
      </trkpt>
      <trkpt lat="43.226680" lon="-4.856983">
        <ele>1760.975999</ele>
        <time>2026-07-14T18:26:17.156Z</time>
      </trkpt>
      <trkpt lat="43.226815" lon="-4.856756">
        <ele>1752.928430</ele>
        <time>2026-07-14T18:27:20.473Z</time>
      </trkpt>
      <trkpt lat="43.226950" lon="-4.856815">
        <ele>1747.588079</ele>
        <time>2026-07-14T18:28:02.142Z</time>
      </trkpt>
      <trkpt lat="43.227010" lon="-4.856698">
        <ele>1743.658613</ele>
        <time>2026-07-14T18:28:32.737Z</time>
      </trkpt>
      <trkpt lat="43.227083" lon="-4.856710">
        <ele>1740.887348</ele>
        <time>2026-07-14T18:28:54.548Z</time>
      </trkpt>
      <trkpt lat="43.227157" lon="-4.856602">
        <ele>1736.815674</ele>
        <time>2026-07-14T18:29:26.778Z</time>
      </trkpt>
      <trkpt lat="43.227236" lon="-4.856568">
        <ele>1733.694934</ele>
        <time>2026-07-14T18:29:51.705Z</time>
      </trkpt>
      <trkpt lat="43.227374" lon="-4.856587">
        <ele>1728.467175</ele>
        <time>2026-07-14T18:30:35.104Z</time>
      </trkpt>
      <trkpt lat="43.227424" lon="-4.856530">
        <ele>1726.017136</ele>
        <time>2026-07-14T18:30:55.148Z</time>
      </trkpt>
      <trkpt lat="43.227527" lon="-4.856526">
        <ele>1722.133192</ele>
        <time>2026-07-14T18:31:27.628Z</time>
      </trkpt>
      <trkpt lat="43.227606" lon="-4.856644">
        <ele>1717.732053</ele>
        <time>2026-07-14T18:32:03.256Z</time>
      </trkpt>
      <trkpt lat="43.227631" lon="-4.856625">
        <ele>1716.654887</ele>
        <time>2026-07-14T18:32:12.583Z</time>
      </trkpt>
      <trkpt lat="43.227631" lon="-4.856653">
        <ele>1715.885876</ele>
        <time>2026-07-14T18:32:18.850Z</time>
      </trkpt>
      <trkpt lat="43.227675" lon="-4.856680">
        <ele>1714.069148</ele>
        <time>2026-07-14T18:32:33.031Z</time>
      </trkpt>
      <trkpt lat="43.227805" lon="-4.856461">
        <ele>1706.311042</ele>
        <time>2026-07-14T18:33:34.462Z</time>
      </trkpt>
      <trkpt lat="43.227868" lon="-4.856511">
        <ele>1703.567906</ele>
        <time>2026-07-14T18:33:55.920Z</time>
      </trkpt>
      <trkpt lat="43.228100" lon="-4.856462">
        <ele>1696.245888</ele>
        <time>2026-07-14T18:35:02.779Z</time>
      </trkpt>
      <trkpt lat="43.228209" lon="-4.856414">
        <ele>1692.714138</ele>
        <time>2026-07-14T18:35:34.237Z</time>
      </trkpt>
      <trkpt lat="43.228280" lon="-4.856467">
        <ele>1690.220588</ele>
        <time>2026-07-14T18:35:55.739Z</time>
      </trkpt>
      <trkpt lat="43.228442" lon="-4.856458">
        <ele>1685.218455</ele>
        <time>2026-07-14T18:36:37.306Z</time>
      </trkpt>
      <trkpt lat="43.228591" lon="-4.856687">
        <ele>1678.316830</ele>
        <time>2026-07-14T18:37:33.793Z</time>
      </trkpt>
      <trkpt lat="43.228707" lon="-4.856651">
        <ele>1674.647629</ele>
        <time>2026-07-14T18:38:05.093Z</time>
      </trkpt>
      <trkpt lat="43.228749" lon="-4.856676">
        <ele>1673.235220</ele>
        <time>2026-07-14T18:38:16.396Z</time>
      </trkpt>
      <trkpt lat="43.228752" lon="-4.856770">
        <ele>1671.120110</ele>
        <time>2026-07-14T18:38:34.774Z</time>
      </trkpt>
      <trkpt lat="43.228796" lon="-4.856828">
        <ele>1669.237898</ele>
        <time>2026-07-14T18:38:49.918Z</time>
      </trkpt>
      <trkpt lat="43.228862" lon="-4.856847">
        <ele>1667.157347</ele>
        <time>2026-07-14T18:39:07.659Z</time>
      </trkpt>
      <trkpt lat="43.228890" lon="-4.856952">
        <ele>1664.643878</ele>
        <time>2026-07-14T18:39:28.150Z</time>
      </trkpt>
      <trkpt lat="43.228890" lon="-4.857070">
        <ele>1661.991290</ele>
        <time>2026-07-14T18:39:50.206Z</time>
      </trkpt>
      <trkpt lat="43.228806" lon="-4.857368">
        <ele>1654.808554</ele>
        <time>2026-07-14T18:40:45.287Z</time>
      </trkpt>
      <trkpt lat="43.228797" lon="-4.857512">
        <ele>1651.559605</ele>
        <time>2026-07-14T18:41:09.214Z</time>
      </trkpt>
      <trkpt lat="43.228833" lon="-4.857515">
        <ele>1650.446884</ele>
        <time>2026-07-14T18:41:16.936Z</time>
      </trkpt>
      <trkpt lat="43.228937" lon="-4.857390">
        <ele>1646.185861</ele>
        <time>2026-07-14T18:41:47.832Z</time>
      </trkpt>
      <trkpt lat="43.229023" lon="-4.857525">
        <ele>1642.166085</ele>
        <time>2026-07-14T18:42:17.171Z</time>
      </trkpt>
      <trkpt lat="43.229089" lon="-4.857826">
        <ele>1635.119801</ele>
        <time>2026-07-14T18:43:08.784Z</time>
      </trkpt>
      <trkpt lat="43.229143" lon="-4.857883">
        <ele>1633.023926</ele>
        <time>2026-07-14T18:43:25.195Z</time>
      </trkpt>
      <trkpt lat="43.229303" lon="-4.857791">
        <ele>1627.686866</ele>
        <time>2026-07-14T18:44:06.009Z</time>
      </trkpt>
      <trkpt lat="43.229408" lon="-4.857639">
        <ele>1622.991644</ele>
        <time>2026-07-14T18:44:43.909Z</time>
      </trkpt>
      <trkpt lat="43.229637" lon="-4.857603">
        <ele>1615.900239</ele>
        <time>2026-07-14T18:45:46.284Z</time>
      </trkpt>
      <trkpt lat="43.229717" lon="-4.857534">
        <ele>1612.993330</ele>
        <time>2026-07-14T18:46:12.456Z</time>
      </trkpt>
      <trkpt lat="43.229756" lon="-4.857349">
        <ele>1608.676229</ele>
        <time>2026-07-14T18:46:51.581Z</time>
      </trkpt>
      <trkpt lat="43.229860" lon="-4.857224">
        <ele>1604.423112</ele>
        <time>2026-07-14T18:47:30.675Z</time>
      </trkpt>
      <trkpt lat="43.229919" lon="-4.857250">
        <ele>1602.516665</ele>
        <time>2026-07-14T18:47:48.356Z</time>
      </trkpt>
      <trkpt lat="43.229918" lon="-4.857311">
        <ele>1601.148930</ele>
        <time>2026-07-14T18:48:01.106Z</time>
      </trkpt>
      <trkpt lat="43.229965" lon="-4.857330">
        <ele>1599.641524</ele>
        <time>2026-07-14T18:48:15.312Z</time>
      </trkpt>
      <trkpt lat="43.230040" lon="-4.857329">
        <ele>1597.333990</ele>
        <time>2026-07-14T18:48:36.844Z</time>
      </trkpt>
      <trkpt lat="43.230176" lon="-4.857190">
        <ele>1592.183807</ele>
        <time>2026-07-14T18:49:25.109Z</time>
      </trkpt>
      <trkpt lat="43.230637" lon="-4.857197">
        <ele>1583.217474</ele>
        <time>2026-07-14T18:51:31.277Z</time>
      </trkpt>
      <trkpt lat="43.230842" lon="-4.857200">
        <ele>1579.230293</ele>
        <time>2026-07-14T18:52:19.425Z</time>
      </trkpt>
      <trkpt lat="43.230955" lon="-4.857202">
        <ele>1577.032423</ele>
        <time>2026-07-14T18:52:43.628Z</time>
      </trkpt>
      <trkpt lat="43.231039" lon="-4.857233">
        <ele>1575.340717</ele>
        <time>2026-07-14T18:53:00.653Z</time>
      </trkpt>
      <trkpt lat="43.231348" lon="-4.857280">
        <ele>1569.294322</ele>
        <time>2026-07-14T18:53:53.005Z</time>
      </trkpt>
      <trkpt lat="43.231432" lon="-4.857403">
        <ele>1566.905456</ele>
        <time>2026-07-14T18:54:12.584Z</time>
      </trkpt>
      <trkpt lat="43.231494" lon="-4.857442">
        <ele>1565.579039</ele>
        <time>2026-07-14T18:54:23.461Z</time>
      </trkpt>
      <trkpt lat="43.231432" lon="-4.857403">
        <ele>1564.252622</ele>
        <time>2026-07-14T18:54:34.443Z</time>
      </trkpt>
      <trkpt lat="43.231348" lon="-4.857280">
        <ele>1561.863756</ele>
        <time>2026-07-14T18:54:53.965Z</time>
      </trkpt>
      <trkpt lat="43.231039" lon="-4.857233">
        <ele>1556.131528</ele>
        <time>2026-07-14T18:55:42.225Z</time>
      </trkpt>
      <trkpt lat="43.230955" lon="-4.857202">
        <ele>1554.794146</ele>
        <time>2026-07-14T18:55:55.330Z</time>
      </trkpt>
      <trkpt lat="43.230842" lon="-4.857200">
        <ele>1553.056614</ele>
        <time>2026-07-14T18:56:12.308Z</time>
      </trkpt>
      <trkpt lat="43.230637" lon="-4.857197">
        <ele>1549.904537</ele>
        <time>2026-07-14T18:56:42.817Z</time>
      </trkpt>
      <trkpt lat="43.230842" lon="-4.857200">
        <ele>1546.752461</ele>
        <time>2026-07-14T18:57:13.966Z</time>
      </trkpt>
      <trkpt lat="43.230955" lon="-4.857202">
        <ele>1545.014929</ele>
        <time>2026-07-14T18:57:31.074Z</time>
      </trkpt>
      <trkpt lat="43.231039" lon="-4.857233">
        <ele>1543.677546</ele>
        <time>2026-07-14T18:57:45.227Z</time>
      </trkpt>
      <trkpt lat="43.231348" lon="-4.857280">
        <ele>1538.897552</ele>
        <time>2026-07-14T18:58:38.965Z</time>
      </trkpt>
      <trkpt lat="43.231432" lon="-4.857403">
        <ele>1537.009028</ele>
        <time>2026-07-14T18:59:03.641Z</time>
      </trkpt>
      <trkpt lat="43.231532" lon="-4.857466">
        <ele>1535.317281</ele>
        <time>2026-07-14T18:59:26.960Z</time>
      </trkpt>
      <trkpt lat="43.231585" lon="-4.857467">
        <ele>1534.502323</ele>
        <time>2026-07-14T18:59:39.299Z</time>
      </trkpt>
      <trkpt lat="43.231639" lon="-4.857443">
        <ele>1533.629623</ele>
        <time>2026-07-14T18:59:52.158Z</time>
      </trkpt>
      <trkpt lat="43.231720" lon="-4.857279">
        <ele>1531.410138</ele>
        <time>2026-07-14T19:00:29.225Z</time>
      </trkpt>
      <trkpt lat="43.231952" lon="-4.857106">
        <ele>1525.015802</ele>
        <time>2026-07-14T19:01:37.487Z</time>
      </trkpt>
      <trkpt lat="43.232251" lon="-4.856969">
        <ele>1515.275519</ele>
        <time>2026-07-14T19:02:59.369Z</time>
      </trkpt>
      <trkpt lat="43.232358" lon="-4.856893">
        <ele>1511.552748</ele>
        <time>2026-07-14T19:03:31.469Z</time>
      </trkpt>
      <trkpt lat="43.232439" lon="-4.856776">
        <ele>1507.919216</ele>
        <time>2026-07-14T19:04:02.572Z</time>
      </trkpt>
      <trkpt lat="43.232537" lon="-4.856696">
        <ele>1504.395913</ele>
        <time>2026-07-14T19:04:33.326Z</time>
      </trkpt>
      <trkpt lat="43.232668" lon="-4.856705">
        <ele>1500.342964</ele>
        <time>2026-07-14T19:05:08.710Z</time>
      </trkpt>
      <trkpt lat="43.232784" lon="-4.856583">
        <ele>1495.827269</ele>
        <time>2026-07-14T19:05:47.980Z</time>
      </trkpt>
      <trkpt lat="43.233146" lon="-4.856585">
        <ele>1484.641431</ele>
        <time>2026-07-14T19:07:23.444Z</time>
      </trkpt>
      <trkpt lat="43.233181" lon="-4.856547">
        <ele>1483.262487</ele>
        <time>2026-07-14T19:07:35.124Z</time>
      </trkpt>
      <trkpt lat="43.233192" lon="-4.856618">
        <ele>1481.628340</ele>
        <time>2026-07-14T19:07:48.710Z</time>
      </trkpt>
      <trkpt lat="43.233350" lon="-4.856603">
        <ele>1476.734498</ele>
        <time>2026-07-14T19:08:29.075Z</time>
      </trkpt>
      <trkpt lat="43.233511" lon="-4.856536">
        <ele>1471.796094</ele>
        <time>2026-07-14T19:09:11.882Z</time>
      </trkpt>
      <trkpt lat="43.233646" lon="-4.856387">
        <ele>1466.989410</ele>
        <time>2026-07-14T19:09:56.581Z</time>
      </trkpt>
      <trkpt lat="43.233699" lon="-4.856225">
        <ele>1463.399464</ele>
        <time>2026-07-14T19:10:29.398Z</time>
      </trkpt>
      <trkpt lat="43.233782" lon="-4.856286">
        <ele>1460.787097</ele>
        <time>2026-07-14T19:10:52.701Z</time>
      </trkpt>
      <trkpt lat="43.233932" lon="-4.855933">
        <ele>1452.525983</ele>
        <time>2026-07-14T19:12:05.607Z</time>
      </trkpt>
      <trkpt lat="43.233962" lon="-4.855912">
        <ele>1451.591570</ele>
        <time>2026-07-14T19:12:14.060Z</time>
      </trkpt>
      <trkpt lat="43.234225" lon="-4.855918">
        <ele>1444.293100</ele>
        <time>2026-07-14T19:13:18.090Z</time>
      </trkpt>
      <trkpt lat="43.234614" lon="-4.855999">
        <ele>1433.376020</ele>
        <time>2026-07-14T19:14:50.333Z</time>
      </trkpt>
      <trkpt lat="43.234809" lon="-4.856000">
        <ele>1427.965317</ele>
        <time>2026-07-14T19:15:34.217Z</time>
      </trkpt>
      <trkpt lat="43.235085" lon="-4.855951">
        <ele>1420.510296</ele>
        <time>2026-07-14T19:16:35.717Z</time>
      </trkpt>
      <trkpt lat="43.235204" lon="-4.855825">
        <ele>1416.623048</ele>
        <time>2026-07-14T19:17:09.528Z</time>
      </trkpt>
      <trkpt lat="43.235222" lon="-4.855771">
        <ele>1415.504045</ele>
        <time>2026-07-14T19:17:19.319Z</time>
      </trkpt>
      <trkpt lat="43.235132" lon="-4.855716">
        <ele>1412.955938</ele>
        <time>2026-07-14T19:17:40.848Z</time>
      </trkpt>
      <trkpt lat="43.235215" lon="-4.855634">
        <ele>1410.310911</ele>
        <time>2026-07-14T19:18:03.203Z</time>
      </trkpt>
      <trkpt lat="43.235211" lon="-4.855576">
        <ele>1409.213095</ele>
        <time>2026-07-14T19:18:12.691Z</time>
      </trkpt>
      <trkpt lat="43.235167" lon="-4.855551">
        <ele>1407.981402</ele>
        <time>2026-07-14T19:18:23.576Z</time>
      </trkpt>
      <trkpt lat="43.235137" lon="-4.855570">
        <ele>1407.126846</ele>
        <time>2026-07-14T19:18:30.182Z</time>
      </trkpt>
      <trkpt lat="43.235089" lon="-4.855514">
        <ele>1405.497470</ele>
        <time>2026-07-14T19:18:43.743Z</time>
      </trkpt>
      <trkpt lat="43.235097" lon="-4.855164">
        <ele>1398.898947</ele>
        <time>2026-07-14T19:19:40.989Z</time>
      </trkpt>
      <trkpt lat="43.235223" lon="-4.854899">
        <ele>1392.936032</ele>
        <time>2026-07-14T19:20:34.555Z</time>
      </trkpt>
      <trkpt lat="43.235188" lon="-4.854850">
        <ele>1391.642954</ele>
        <time>2026-07-14T19:20:46.084Z</time>
      </trkpt>
      <trkpt lat="43.235236" lon="-4.854808">
        <ele>1390.170646</ele>
        <time>2026-07-14T19:20:58.502Z</time>
      </trkpt>
      <trkpt lat="43.235253" lon="-4.854693">
        <ele>1387.959473</ele>
        <time>2026-07-14T19:21:19.109Z</time>
      </trkpt>
      <trkpt lat="43.235200" lon="-4.854719">
        <ele>1386.503727</ele>
        <time>2026-07-14T19:21:31.046Z</time>
      </trkpt>
      <trkpt lat="43.235175" lon="-4.854683">
        <ele>1385.566551</ele>
        <time>2026-07-14T19:21:39.697Z</time>
      </trkpt>
      <trkpt lat="43.235195" lon="-4.854617">
        <ele>1384.219581</ele>
        <time>2026-07-14T19:21:52.432Z</time>
      </trkpt>
      <trkpt lat="43.235243" lon="-4.854600">
        <ele>1382.937417</ele>
        <time>2026-07-14T19:22:03.511Z</time>
      </trkpt>
      <trkpt lat="43.235266" lon="-4.854552">
        <ele>1381.854829</ele>
        <time>2026-07-14T19:22:13.513Z</time>
      </trkpt>
      <trkpt lat="43.235264" lon="-4.854506">
        <ele>1380.986481</ele>
        <time>2026-07-14T19:22:22.002Z</time>
      </trkpt>
      <trkpt lat="43.235210" lon="-4.854477">
        <ele>1379.486693</ele>
        <time>2026-07-14T19:22:35.812Z</time>
      </trkpt>
      <trkpt lat="43.235204" lon="-4.854258">
        <ele>1374.869954</ele>
        <time>2026-07-14T19:23:15.504Z</time>
      </trkpt>
      <trkpt lat="43.235074" lon="-4.854083">
        <ele>1369.163020</ele>
        <time>2026-07-14T19:24:01.603Z</time>
      </trkpt>
      <trkpt lat="43.235104" lon="-4.853933">
        <ele>1365.611176</ele>
        <time>2026-07-14T19:24:31.213Z</time>
      </trkpt>
      <trkpt lat="43.235183" lon="-4.853850">
        <ele>1362.493070</ele>
        <time>2026-07-14T19:24:57.206Z</time>
      </trkpt>
      <trkpt lat="43.235177" lon="-4.853728">
        <ele>1359.700962</ele>
        <time>2026-07-14T19:25:19.869Z</time>
      </trkpt>
      <trkpt lat="43.235115" lon="-4.853686">
        <ele>1357.533985</ele>
        <time>2026-07-14T19:25:38.729Z</time>
      </trkpt>
      <trkpt lat="43.235131" lon="-4.853527">
        <ele>1353.868882</ele>
        <time>2026-07-14T19:26:08.175Z</time>
      </trkpt>
      <trkpt lat="43.235197" lon="-4.853457">
        <ele>1351.254719</ele>
        <time>2026-07-14T19:26:29.915Z</time>
      </trkpt>
      <trkpt lat="43.235120" lon="-4.853404">
        <ele>1348.554942</ele>
        <time>2026-07-14T19:26:52.553Z</time>
      </trkpt>
      <trkpt lat="43.235187" lon="-4.853308">
        <ele>1345.519344</ele>
        <time>2026-07-14T19:27:17.678Z</time>
      </trkpt>
      <trkpt lat="43.235183" lon="-4.853230">
        <ele>1343.733873</ele>
        <time>2026-07-14T19:27:32.925Z</time>
      </trkpt>
      <trkpt lat="43.235290" lon="-4.853010">
        <ele>1337.693819</ele>
        <time>2026-07-14T19:28:24.331Z</time>
      </trkpt>
      <trkpt lat="43.235271" lon="-4.852812">
        <ele>1333.133614</ele>
        <time>2026-07-14T19:29:02.847Z</time>
      </trkpt>
      <trkpt lat="43.235314" lon="-4.852677">
        <ele>1329.769276</ele>
        <time>2026-07-14T19:29:31.260Z</time>
      </trkpt>
      <trkpt lat="43.235245" lon="-4.852631">
        <ele>1327.365091</ele>
        <time>2026-07-14T19:29:51.765Z</time>
      </trkpt>
      <trkpt lat="43.235249" lon="-4.852592">
        <ele>1326.465778</ele>
        <time>2026-07-14T19:29:59.342Z</time>
      </trkpt>
      <trkpt lat="43.235321" lon="-4.852499">
        <ele>1323.367083</ele>
        <time>2026-07-14T19:30:25.929Z</time>
      </trkpt>
      <trkpt lat="43.235247" lon="-4.852488">
        <ele>1320.996438</ele>
        <time>2026-07-14T19:30:45.741Z</time>
      </trkpt>
      <trkpt lat="43.235245" lon="-4.852467">
        <ele>1320.439685</ele>
        <time>2026-07-14T19:30:49.902Z</time>
      </trkpt>
      <trkpt lat="43.235316" lon="-4.852413">
        <ele>1317.510762</ele>
        <time>2026-07-14T19:31:12.018Z</time>
      </trkpt>
      <trkpt lat="43.235346" lon="-4.852336">
        <ele>1315.215289</ele>
        <time>2026-07-14T19:31:29.736Z</time>
      </trkpt>
      <trkpt lat="43.235292" lon="-4.852296">
        <ele>1313.001160</ele>
        <time>2026-07-14T19:31:46.952Z</time>
      </trkpt>
      <trkpt lat="43.235343" lon="-4.852211">
        <ele>1310.106415</ele>
        <time>2026-07-14T19:32:09.553Z</time>
      </trkpt>
      <trkpt lat="43.235340" lon="-4.852158">
        <ele>1308.708934</ele>
        <time>2026-07-14T19:32:20.456Z</time>
      </trkpt>
      <trkpt lat="43.235277" lon="-4.852097">
        <ele>1305.927001</ele>
        <time>2026-07-14T19:32:42.156Z</time>
      </trkpt>
      <trkpt lat="43.235339" lon="-4.852044">
        <ele>1303.291448</ele>
        <time>2026-07-14T19:33:02.261Z</time>
      </trkpt>
      <trkpt lat="43.235296" lon="-4.851991">
        <ele>1301.206108</ele>
        <time>2026-07-14T19:33:17.595Z</time>
      </trkpt>
      <trkpt lat="43.235320" lon="-4.851958">
        <ele>1299.980328</ele>
        <time>2026-07-14T19:33:26.985Z</time>
      </trkpt>
      <trkpt lat="43.235300" lon="-4.851927">
        <ele>1298.891784</ele>
        <time>2026-07-14T19:33:35.646Z</time>
      </trkpt>
      <trkpt lat="43.235344" lon="-4.851883">
        <ele>1296.927451</ele>
        <time>2026-07-14T19:33:50.592Z</time>
      </trkpt>
      <trkpt lat="43.235298" lon="-4.851884">
        <ele>1295.267411</ele>
        <time>2026-07-14T19:34:03.652Z</time>
      </trkpt>
      <trkpt lat="43.235281" lon="-4.851855">
        <ele>1294.288905</ele>
        <time>2026-07-14T19:34:11.532Z</time>
      </trkpt>
      <trkpt lat="43.235436" lon="-4.851705">
        <ele>1287.445670</ele>
        <time>2026-07-14T19:35:06.460Z</time>
      </trkpt>
      <trkpt lat="43.235313" lon="-4.851658">
        <ele>1282.838653</ele>
        <time>2026-07-14T19:35:43.134Z</time>
      </trkpt>
      <trkpt lat="43.235256" lon="-4.851578">
        <ele>1279.897036</ele>
        <time>2026-07-14T19:36:06.658Z</time>
      </trkpt>
      <trkpt lat="43.235026" lon="-4.851451">
        <ele>1270.951510</ele>
        <time>2026-07-14T19:37:20.538Z</time>
      </trkpt>
      <trkpt lat="43.235096" lon="-4.851384">
        <ele>1267.872209</ele>
        <time>2026-07-14T19:37:45.553Z</time>
      </trkpt>
      <trkpt lat="43.235047" lon="-4.851368">
        <ele>1266.054786</ele>
        <time>2026-07-14T19:38:01.261Z</time>
      </trkpt>
      <trkpt lat="43.235055" lon="-4.851337">
        <ele>1265.190228</ele>
        <time>2026-07-14T19:38:08.675Z</time>
      </trkpt>
      <trkpt lat="43.235101" lon="-4.851331">
        <ele>1263.522920</ele>
        <time>2026-07-14T19:38:21.973Z</time>
      </trkpt>
      <trkpt lat="43.235130" lon="-4.851319">
        <ele>1262.429987</ele>
        <time>2026-07-14T19:38:30.247Z</time>
      </trkpt>
      <trkpt lat="43.235155" lon="-4.851204">
        <ele>1259.275102</ele>
        <time>2026-07-14T19:38:54.941Z</time>
      </trkpt>
      <trkpt lat="43.235094" lon="-4.851000">
        <ele>1253.342655</ele>
        <time>2026-07-14T19:39:39.137Z</time>
      </trkpt>
      <trkpt lat="43.235087" lon="-4.850905">
        <ele>1250.715440</ele>
        <time>2026-07-14T19:39:57.827Z</time>
      </trkpt>
      <trkpt lat="43.235116" lon="-4.850810">
        <ele>1247.881384</ele>
        <time>2026-07-14T19:40:18.381Z</time>
      </trkpt>
      <trkpt lat="43.235186" lon="-4.850741">
        <ele>1244.626679</ele>
        <time>2026-07-14T19:40:41.252Z</time>
      </trkpt>
      <trkpt lat="43.235227" lon="-4.850595">
        <ele>1240.321474</ele>
        <time>2026-07-14T19:41:11.991Z</time>
      </trkpt>
      <trkpt lat="43.235308" lon="-4.850508">
        <ele>1236.437156</ele>
        <time>2026-07-14T19:41:40.081Z</time>
      </trkpt>
      <trkpt lat="43.235366" lon="-4.850373">
        <ele>1232.124948</ele>
        <time>2026-07-14T19:42:10.104Z</time>
      </trkpt>
      <trkpt lat="43.235431" lon="-4.849955">
        <ele>1220.364871</ele>
        <time>2026-07-14T19:43:30.307Z</time>
      </trkpt>
      <trkpt lat="43.235530" lon="-4.849680">
        <ele>1211.925075</ele>
        <time>2026-07-14T19:44:30.052Z</time>
      </trkpt>
      <trkpt lat="43.235513" lon="-4.849582">
        <ele>1209.153289</ele>
        <time>2026-07-14T19:44:49.502Z</time>
      </trkpt>
      <trkpt lat="43.235525" lon="-4.849516">
        <ele>1207.281647</ele>
        <time>2026-07-14T19:45:02.661Z</time>
      </trkpt>
      <trkpt lat="43.235579" lon="-4.849376">
        <ele>1202.923093</ele>
        <time>2026-07-14T19:45:33.974Z</time>
      </trkpt>
      <trkpt lat="43.235620" lon="-4.849142">
        <ele>1196.301168</ele>
        <time>2026-07-14T19:46:22.761Z</time>
      </trkpt>
      <trkpt lat="43.235660" lon="-4.849031">
        <ele>1192.893897</ele>
        <time>2026-07-14T19:46:48.642Z</time>
      </trkpt>
      <trkpt lat="43.235704" lon="-4.848509">
        <ele>1179.120050</ele>
        <time>2026-07-14T19:48:41.013Z</time>
      </trkpt>
      <trkpt lat="43.235746" lon="-4.848350">
        <ele>1174.784474</ele>
        <time>2026-07-14T19:49:17.478Z</time>
      </trkpt>
      <trkpt lat="43.235766" lon="-4.848029">
        <ele>1166.525671</ele>
        <time>2026-07-14T19:50:25.232Z</time>
      </trkpt>
      <trkpt lat="43.235681" lon="-4.847825">
        <ele>1160.501317</ele>
        <time>2026-07-14T19:51:13.710Z</time>
      </trkpt>
      <trkpt lat="43.235642" lon="-4.847596">
        <ele>1154.472683</ele>
        <time>2026-07-14T19:52:01.056Z</time>
      </trkpt>
      <trkpt lat="43.235648" lon="-4.847503">
        <ele>1152.079314</ele>
        <time>2026-07-14T19:52:19.294Z</time>
      </trkpt>
      <trkpt lat="43.235626" lon="-4.847433">
        <ele>1150.125025</ele>
        <time>2026-07-14T19:52:33.905Z</time>
      </trkpt>
      <trkpt lat="43.235652" lon="-4.847203">
        <ele>1144.158460</ele>
        <time>2026-07-14T19:53:17.347Z</time>
      </trkpt>
      <trkpt lat="43.235615" lon="-4.847047">
        <ele>1139.952842</ele>
        <time>2026-07-14T19:53:47.034Z</time>
      </trkpt>
      <trkpt lat="43.235571" lon="-4.846964">
        <ele>1137.321490</ele>
        <time>2026-07-14T19:54:06.659Z</time>
      </trkpt>
      <trkpt lat="43.235634" lon="-4.846903">
        <ele>1134.608705</ele>
        <time>2026-07-14T19:54:25.924Z</time>
      </trkpt>
      <trkpt lat="43.235634" lon="-4.846847">
        <ele>1133.173154</ele>
        <time>2026-07-14T19:54:36.058Z</time>
      </trkpt>
      <trkpt lat="43.235695" lon="-4.846842">
        <ele>1131.022957</ele>
        <time>2026-07-14T19:54:50.886Z</time>
      </trkpt>
      <trkpt lat="43.235693" lon="-4.846796">
        <ele>1129.841657</ele>
        <time>2026-07-14T19:54:58.711Z</time>
      </trkpt>
      <trkpt lat="43.235639" lon="-4.846769">
        <ele>1127.819451</ele>
        <time>2026-07-14T19:55:12.107Z</time>
      </trkpt>
      <trkpt lat="43.235639" lon="-4.846605">
        <ele>1123.956089</ele>
        <time>2026-07-14T19:55:38.986Z</time>
      </trkpt>
      <trkpt lat="43.235690" lon="-4.846581">
        <ele>1122.475593</ele>
        <time>2026-07-14T19:55:51.064Z</time>
      </trkpt>
      <trkpt lat="43.235637" lon="-4.846499">
        <ele>1120.282563</ele>
        <time>2026-07-14T19:56:08.112Z</time>
      </trkpt>
      <trkpt lat="43.235670" lon="-4.846418">
        <ele>1118.425913</ele>
        <time>2026-07-14T19:56:22.442Z</time>
      </trkpt>
      <trkpt lat="43.235755" lon="-4.846360">
        <ele>1115.819279</ele>
        <time>2026-07-14T19:56:41.638Z</time>
      </trkpt>
      <trkpt lat="43.235760" lon="-4.846321">
        <ele>1115.027058</ele>
        <time>2026-07-14T19:56:47.422Z</time>
      </trkpt>
      <trkpt lat="43.235704" lon="-4.846181">
        <ele>1111.831839</ele>
        <time>2026-07-14T19:57:10.049Z</time>
      </trkpt>
      <trkpt lat="43.235761" lon="-4.846141">
        <ele>1110.073901</ele>
        <time>2026-07-14T19:57:22.939Z</time>
      </trkpt>
      <trkpt lat="43.235752" lon="-4.846105">
        <ele>1109.312463</ele>
        <time>2026-07-14T19:57:28.486Z</time>
      </trkpt>
      <trkpt lat="43.235900" lon="-4.845888">
        <ele>1103.365712</ele>
        <time>2026-07-14T19:58:12.035Z</time>
      </trkpt>
      <trkpt lat="43.235910" lon="-4.845808">
        <ele>1101.741853</ele>
        <time>2026-07-14T19:58:24.633Z</time>
      </trkpt>
      <trkpt lat="43.235949" lon="-4.845734">
        <ele>1099.914662</ele>
        <time>2026-07-14T19:58:38.903Z</time>
      </trkpt>
      <trkpt lat="43.235994" lon="-4.845735">
        <ele>1098.678787</ele>
        <time>2026-07-14T19:58:48.767Z</time>
      </trkpt>
      <trkpt lat="43.236047" lon="-4.845655">
        <ele>1096.515531</ele>
        <time>2026-07-14T19:59:06.500Z</time>
      </trkpt>
      <trkpt lat="43.236013" lon="-4.845560">
        <ele>1094.398029</ele>
        <time>2026-07-14T19:59:24.367Z</time>
      </trkpt>
      <trkpt lat="43.235967" lon="-4.845542">
        <ele>1093.084529</ele>
        <time>2026-07-14T19:59:35.885Z</time>
      </trkpt>
      <trkpt lat="43.235957" lon="-4.845500">
        <ele>1092.200548</ele>
        <time>2026-07-14T19:59:43.401Z</time>
      </trkpt>
      <trkpt lat="43.236031" lon="-4.845406">
        <ele>1089.431839</ele>
        <time>2026-07-14T20:00:08.282Z</time>
      </trkpt>
      <trkpt lat="43.235989" lon="-4.845355">
        <ele>1087.891974</ele>
        <time>2026-07-14T20:00:22.404Z</time>
      </trkpt>
      <trkpt lat="43.236078" lon="-4.845273">
        <ele>1084.948482</ele>
        <time>2026-07-14T20:00:50.150Z</time>
      </trkpt>
      <trkpt lat="43.236053" lon="-4.845235">
        <ele>1083.924163</ele>
        <time>2026-07-14T20:00:59.847Z</time>
      </trkpt>
      <trkpt lat="43.236097" lon="-4.845179">
        <ele>1082.276435</ele>
        <time>2026-07-14T20:01:15.797Z</time>
      </trkpt>
      <trkpt lat="43.235930" lon="-4.845067">
        <ele>1077.172444</ele>
        <time>2026-07-14T20:02:07.234Z</time>
      </trkpt>
      <trkpt lat="43.235843" lon="-4.844970">
        <ele>1073.514398</ele>
        <time>2026-07-14T20:02:39.354Z</time>
      </trkpt>
      <trkpt lat="43.235770" lon="-4.844770">
        <ele>1067.494932</ele>
        <time>2026-07-14T20:03:26.733Z</time>
      </trkpt>
      <trkpt lat="43.235691" lon="-4.844697">
        <ele>1063.977412</ele>
        <time>2026-07-14T20:03:55.287Z</time>
      </trkpt>
      <trkpt lat="43.235666" lon="-4.844599">
        <ele>1061.183325</ele>
        <time>2026-07-14T20:04:18.174Z</time>
      </trkpt>
      <trkpt lat="43.235657" lon="-4.844284">
        <ele>1052.700428</ele>
        <time>2026-07-14T20:05:28.359Z</time>
      </trkpt>
      <trkpt lat="43.235702" lon="-4.844107">
        <ele>1047.655830</ele>
        <time>2026-07-14T20:06:10.425Z</time>
      </trkpt>
      <trkpt lat="43.235602" lon="-4.843636">
        <ele>1034.454391</ele>
        <time>2026-07-14T20:07:57.974Z</time>
      </trkpt>
      <trkpt lat="43.235609" lon="-4.843477">
        <ele>1030.168028</ele>
        <time>2026-07-14T20:08:32.052Z</time>
      </trkpt>
      <trkpt lat="43.235641" lon="-4.843396">
        <ele>1027.688548</ele>
        <time>2026-07-14T20:08:51.476Z</time>
      </trkpt>
      <trkpt lat="43.235625" lon="-4.843310">
        <ele>1025.300095</ele>
        <time>2026-07-14T20:09:10.415Z</time>
      </trkpt>
      <trkpt lat="43.235765" lon="-4.843080">
        <ele>1017.235107</ele>
        <time>2026-07-14T20:10:12.898Z</time>
      </trkpt>
      <trkpt lat="43.235738" lon="-4.843021">
        <ele>1015.360241</ele>
        <time>2026-07-14T20:10:27.180Z</time>
      </trkpt>
      <trkpt lat="43.235738" lon="-4.842928">
        <ele>1012.857693</ele>
        <time>2026-07-14T20:10:46.225Z</time>
      </trkpt>
      <trkpt lat="43.235810" lon="-4.842438">
        <ele>999.973298</ele>
        <time>2026-07-14T20:12:26.742Z</time>
      </trkpt>
      <trkpt lat="43.235791" lon="-4.842331">
        <ele>997.178738</ele>
        <time>2026-07-14T20:12:49.053Z</time>
      </trkpt>
      <trkpt lat="43.235819" lon="-4.842238">
        <ele>994.625335</ele>
        <time>2026-07-14T20:13:09.576Z</time>
      </trkpt>
      <trkpt lat="43.235792" lon="-4.842206">
        <ele>993.382895</ele>
        <time>2026-07-14T20:13:19.573Z</time>
      </trkpt>
      <trkpt lat="43.235824" lon="-4.842178">
        <ele>992.061159</ele>
        <time>2026-07-14T20:13:30.154Z</time>
      </trkpt>
      <trkpt lat="43.235803" lon="-4.842092">
        <ele>989.759635</ele>
        <time>2026-07-14T20:13:48.655Z</time>
      </trkpt>
      <trkpt lat="43.235832" lon="-4.841966">
        <ele>986.406690</ele>
        <time>2026-07-14T20:14:15.916Z</time>
      </trkpt>
      <trkpt lat="43.235779" lon="-4.841600">
        <ele>976.937924</ele>
        <time>2026-07-14T20:15:32.716Z</time>
      </trkpt>
      <trkpt lat="43.235801" lon="-4.841533">
        <ele>975.073130</ele>
        <time>2026-07-14T20:15:47.877Z</time>
      </trkpt>
      <trkpt lat="43.235759" lon="-4.841334">
        <ele>969.815973</ele>
        <time>2026-07-14T20:16:30.672Z</time>
      </trkpt>
      <trkpt lat="43.235690" lon="-4.841180">
        <ele>965.228437</ele>
        <time>2026-07-14T20:17:08.132Z</time>
      </trkpt>
      <trkpt lat="43.235712" lon="-4.841094">
        <ele>962.915604</ele>
        <time>2026-07-14T20:17:27.067Z</time>
      </trkpt>
      <trkpt lat="43.235695" lon="-4.841032">
        <ele>961.234647</ele>
        <time>2026-07-14T20:17:40.809Z</time>
      </trkpt>
      <trkpt lat="43.235546" lon="-4.841086">
        <ele>955.867236</ele>
        <time>2026-07-14T20:18:24.425Z</time>
      </trkpt>
      <trkpt lat="43.235488" lon="-4.841064">
        <ele>953.771422</ele>
        <time>2026-07-14T20:18:41.557Z</time>
      </trkpt>
      <trkpt lat="43.235427" lon="-4.840903">
        <ele>949.166668</ele>
        <time>2026-07-14T20:19:18.322Z</time>
      </trkpt>
      <trkpt lat="43.235414" lon="-4.840790">
        <ele>946.368849</ele>
        <time>2026-07-14T20:19:41.149Z</time>
      </trkpt>
      <trkpt lat="43.235372" lon="-4.840192">
        <ele>934.825395</ele>
        <time>2026-07-14T20:21:36.275Z</time>
      </trkpt>
      <trkpt lat="43.235426" lon="-4.839876">
        <ele>928.588870</ele>
        <time>2026-07-14T20:22:34.620Z</time>
      </trkpt>
      <trkpt lat="43.235418" lon="-4.839673">
        <ele>924.682656</ele>
        <time>2026-07-14T20:23:09.446Z</time>
      </trkpt>
      <trkpt lat="43.235485" lon="-4.839177">
        <ele>914.989915</ele>
        <time>2026-07-14T20:24:31.274Z</time>
      </trkpt>
      <trkpt lat="43.235455" lon="-4.838907">
        <ele>909.742058</ele>
        <time>2026-07-14T20:25:13.462Z</time>
      </trkpt>
      <trkpt lat="43.235508" lon="-4.838195">
        <ele>897.036243</ele>
        <time>2026-07-14T20:26:59.515Z</time>
      </trkpt>
      <trkpt lat="43.235493" lon="-4.837989">
        <ele>894.330964</ele>
        <time>2026-07-14T20:27:29.418Z</time>
      </trkpt>
      <trkpt lat="43.235543" lon="-4.837707">
        <ele>890.538423</ele>
        <time>2026-07-14T20:28:10.942Z</time>
      </trkpt>
      <trkpt lat="43.235519" lon="-4.837384">
        <ele>886.295787</ele>
        <time>2026-07-14T20:28:56.640Z</time>
      </trkpt>
      <trkpt lat="43.235444" lon="-4.836919">
        <ele>880.072356</ele>
        <time>2026-07-14T20:29:59.984Z</time>
      </trkpt>
      <trkpt lat="43.235445" lon="-4.836778">
        <ele>878.229776</ele>
        <time>2026-07-14T20:30:18.171Z</time>
      </trkpt>
      <trkpt lat="43.235402" lon="-4.836679">
        <ele>876.723652</ele>
        <time>2026-07-14T20:30:33.066Z</time>
      </trkpt>
      <trkpt lat="43.235275" lon="-4.836551">
        <ele>873.897616</ele>
        <time>2026-07-14T20:31:00.641Z</time>
      </trkpt>
      <trkpt lat="43.235219" lon="-4.835920">
        <ele>865.712882</ele>
        <time>2026-07-14T20:32:21.698Z</time>
      </trkpt>
      <trkpt lat="43.235147" lon="-4.835654">
        <ele>862.325423</ele>
        <time>2026-07-14T20:32:58.314Z</time>
      </trkpt>
      <trkpt lat="43.235151" lon="-4.835607">
        <ele>861.760544</ele>
        <time>2026-07-14T20:33:04.411Z</time>
      </trkpt>
      <trkpt lat="43.235170" lon="-4.835441">
        <ele>859.754606</ele>
        <time>2026-07-14T20:33:26.075Z</time>
      </trkpt>
      <trkpt lat="43.235305" lon="-4.835036">
        <ele>854.437900</ele>
        <time>2026-07-14T20:34:23.413Z</time>
      </trkpt>
      <trkpt lat="43.235326" lon="-4.834867">
        <ele>852.391327</ele>
        <time>2026-07-14T20:34:45.385Z</time>
      </trkpt>
      <trkpt lat="43.235312" lon="-4.834774">
        <ele>851.257686</ele>
        <time>2026-07-14T20:34:57.624Z</time>
      </trkpt>
      <trkpt lat="43.235354" lon="-4.834580">
        <ele>848.841722</ele>
        <time>2026-07-14T20:35:23.471Z</time>
      </trkpt>
      <trkpt lat="43.235354" lon="-4.834408">
        <ele>846.788471</ele>
        <time>2026-07-14T20:35:45.417Z</time>
      </trkpt>
      <trkpt lat="43.235397" lon="-4.834241">
        <ele>844.674066</ele>
        <time>2026-07-14T20:36:08.292Z</time>
      </trkpt>
      <trkpt lat="43.235433" lon="-4.833914">
        <ele>840.726189</ele>
        <time>2026-07-14T20:36:52.351Z</time>
      </trkpt>
      <trkpt lat="43.235477" lon="-4.833696">
        <ele>838.025797</ele>
        <time>2026-07-14T20:37:23.065Z</time>
      </trkpt>
      <trkpt lat="43.235538" lon="-4.833565">
        <ele>836.042457</ele>
        <time>2026-07-14T20:37:44.262Z</time>
      </trkpt>
      <trkpt lat="43.235491" lon="-4.833301">
        <ele>832.493816</ele>
        <time>2026-07-14T20:38:21.939Z</time>
      </trkpt>
      <trkpt lat="43.235451" lon="-4.833220">
        <ele>831.216073</ele>
        <time>2026-07-14T20:38:35.485Z</time>
      </trkpt>
      <trkpt lat="43.235441" lon="-4.833076">
        <ele>829.327252</ele>
        <time>2026-07-14T20:38:54.857Z</time>
      </trkpt>
      <trkpt lat="43.235511" lon="-4.832887">
        <ele>826.558767</ele>
        <time>2026-07-14T20:39:22.422Z</time>
      </trkpt>
      <trkpt lat="43.235534" lon="-4.832761">
        <ele>824.862652</ele>
        <time>2026-07-14T20:39:39.164Z</time>
      </trkpt>
      <trkpt lat="43.235515" lon="-4.832705">
        <ele>824.056019</ele>
        <time>2026-07-14T20:39:47.103Z</time>
      </trkpt>
      <trkpt lat="43.235560" lon="-4.832679">
        <ele>823.180949</ele>
        <time>2026-07-14T20:39:55.704Z</time>
      </trkpt>
      <trkpt lat="43.235558" lon="-4.832627">
        <ele>822.501008</ele>
        <time>2026-07-14T20:40:02.397Z</time>
      </trkpt>
      <trkpt lat="43.235497" lon="-4.832562">
        <ele>821.116933</ele>
        <time>2026-07-14T20:40:16.018Z</time>
      </trkpt>
      <trkpt lat="43.235492" lon="-4.832524">
        <ele>820.612716</ele>
        <time>2026-07-14T20:40:21.005Z</time>
      </trkpt>
      <trkpt lat="43.235556" lon="-4.832432">
        <ele>818.951729</ele>
        <time>2026-07-14T20:40:37.372Z</time>
      </trkpt>
      <trkpt lat="43.235523" lon="-4.832365">
        <ele>817.895699</ele>
        <time>2026-07-14T20:40:47.805Z</time>
      </trkpt>
      <trkpt lat="43.235541" lon="-4.832246">
        <ele>816.308707</ele>
        <time>2026-07-14T20:41:03.505Z</time>
      </trkpt>
      <trkpt lat="43.235518" lon="-4.832132">
        <ele>814.764115</ele>
        <time>2026-07-14T20:41:18.840Z</time>
      </trkpt>
      <trkpt lat="43.235543" lon="-4.832113">
        <ele>814.251944</ele>
        <time>2026-07-14T20:41:23.981Z</time>
      </trkpt>
      <trkpt lat="43.235573" lon="-4.832154">
        <ele>813.493182</ele>
        <time>2026-07-14T20:41:31.532Z</time>
      </trkpt>
      <trkpt lat="43.235628" lon="-4.832129">
        <ele>812.454778</ele>
        <time>2026-07-14T20:41:42.136Z</time>
      </trkpt>
      <trkpt lat="43.235638" lon="-4.832083">
        <ele>811.827959</ele>
        <time>2026-07-14T20:41:48.571Z</time>
      </trkpt>
      <trkpt lat="43.235563" lon="-4.831898">
        <ele>809.063487</ele>
        <time>2026-07-14T20:42:16.989Z</time>
      </trkpt>
      <trkpt lat="43.235605" lon="-4.831793">
        <ele>807.499383</ele>
        <time>2026-07-14T20:42:33.236Z</time>
      </trkpt>
      <trkpt lat="43.235587" lon="-4.831404">
        <ele>800.625320</ele>
        <time>2026-07-14T20:43:29.274Z</time>
      </trkpt>
      <trkpt lat="43.235608" lon="-4.831352">
        <ele>799.368134</ele>
        <time>2026-07-14T20:43:38.390Z</time>
      </trkpt>
      <trkpt lat="43.235652" lon="-4.831366">
        <ele>798.057213</ele>
        <time>2026-07-14T20:43:47.989Z</time>
      </trkpt>
      <trkpt lat="43.235639" lon="-4.831291">
        <ele>796.427052</ele>
        <time>2026-07-14T20:44:00.086Z</time>
      </trkpt>
      <trkpt lat="43.235677" lon="-4.831122">
        <ele>792.687177</ele>
        <time>2026-07-14T20:44:29.025Z</time>
      </trkpt>
      <trkpt lat="43.235706" lon="-4.831162">
        <ele>791.493926</ele>
        <time>2026-07-14T20:44:38.619Z</time>
      </trkpt>
      <trkpt lat="43.235845" lon="-4.831002">
        <ele>786.228738</ele>
        <time>2026-07-14T20:45:21.840Z</time>
      </trkpt>
      <trkpt lat="43.235860" lon="-4.830806">
        <ele>782.061478</ele>
        <time>2026-07-14T20:45:57.237Z</time>
      </trkpt>
      <trkpt lat="43.235902" lon="-4.830690">
        <ele>779.322425</ele>
        <time>2026-07-14T20:46:21.339Z</time>
      </trkpt>
      <trkpt lat="43.235961" lon="-4.830702">
        <ele>777.591308</ele>
        <time>2026-07-14T20:46:37.067Z</time>
      </trkpt>
      <trkpt lat="43.236004" lon="-4.830678">
        <ele>776.244041</ele>
        <time>2026-07-14T20:46:49.287Z</time>
      </trkpt>
      <trkpt lat="43.236023" lon="-4.830607">
        <ele>774.644660</ele>
        <time>2026-07-14T20:47:04.097Z</time>
      </trkpt>
      <trkpt lat="43.236015" lon="-4.830401">
        <ele>770.282579</ele>
        <time>2026-07-14T20:47:45.177Z</time>
      </trkpt>
      <trkpt lat="43.236049" lon="-4.830308">
        <ele>768.082371</ele>
        <time>2026-07-14T20:48:06.436Z</time>
      </trkpt>
      <trkpt lat="43.236119" lon="-4.830234">
        <ele>765.517972</ele>
        <time>2026-07-14T20:48:31.530Z</time>
      </trkpt>
      <trkpt lat="43.236221" lon="-4.829886">
        <ele>757.586288</ele>
        <time>2026-07-14T20:49:49.174Z</time>
      </trkpt>
      <trkpt lat="43.236311" lon="-4.829835">
        <ele>754.760276</ele>
        <time>2026-07-14T20:50:16.413Z</time>
      </trkpt>
      <trkpt lat="43.236389" lon="-4.829741">
        <ele>751.991133</ele>
        <time>2026-07-14T20:50:45.541Z</time>
      </trkpt>
      <trkpt lat="43.236549" lon="-4.829432">
        <ele>745.432545</ele>
        <time>2026-07-14T20:52:01.430Z</time>
      </trkpt>
      <trkpt lat="43.236625" lon="-4.829210">
        <ele>741.188911</ele>
        <time>2026-07-14T20:52:48.808Z</time>
      </trkpt>
      <trkpt lat="43.236690" lon="-4.828850">
        <ele>734.772288</ele>
        <time>2026-07-14T20:53:56.953Z</time>
      </trkpt>
      <trkpt lat="43.236615" lon="-4.828431">
        <ele>727.307766</ele>
        <time>2026-07-14T20:55:08.103Z</time>
      </trkpt>
      <trkpt lat="43.236581" lon="-4.828092">
        <ele>721.387558</ele>
        <time>2026-07-14T20:55:54.433Z</time>
      </trkpt>
      <trkpt lat="43.236660" lon="-4.827880">
        <ele>717.267893</ele>
        <time>2026-07-14T20:56:24.562Z</time>
      </trkpt>
      <trkpt lat="43.236791" lon="-4.827639">
        <ele>712.065806</ele>
        <time>2026-07-14T20:57:01.162Z</time>
      </trkpt>
      <trkpt lat="43.236910" lon="-4.827511">
        <ele>709.715834</ele>
        <time>2026-07-14T20:57:25.661Z</time>
      </trkpt>
      <trkpt lat="43.236931" lon="-4.827328">
        <ele>708.604588</ele>
        <time>2026-07-14T20:57:47.353Z</time>
      </trkpt>
      <trkpt lat="43.236876" lon="-4.827289">
        <ele>708.094883</ele>
        <time>2026-07-14T20:57:57.116Z</time>
      </trkpt>
      <trkpt lat="43.236741" lon="-4.827052">
        <ele>706.290292</ele>
        <time>2026-07-14T20:58:23.640Z</time>
      </trkpt>
      <trkpt lat="43.236674" lon="-4.826836">
        <ele>704.882078</ele>
        <time>2026-07-14T20:58:44.122Z</time>
      </trkpt>
      <trkpt lat="43.236651" lon="-4.826041">
        <ele>700.109554</ele>
        <time>2026-07-14T20:59:50.471Z</time>
      </trkpt>
      <trkpt lat="43.236692" lon="-4.825673">
        <ele>697.876462</ele>
        <time>2026-07-14T21:00:20.210Z</time>
      </trkpt>
      <trkpt lat="43.236672" lon="-4.825613">
        <ele>697.480671</ele>
        <time>2026-07-14T21:00:25.505Z</time>
      </trkpt>
      <trkpt lat="43.236593" lon="-4.825587">
        <ele>696.811779</ele>
        <time>2026-07-14T21:00:34.638Z</time>
      </trkpt>
      <trkpt lat="43.236438" lon="-4.825447">
        <ele>695.310786</ele>
        <time>2026-07-14T21:00:55.482Z</time>
      </trkpt>
      <trkpt lat="43.235840" lon="-4.825270">
        <ele>690.753700</ele>
        <time>2026-07-14T21:02:04.235Z</time>
      </trkpt>
      <trkpt lat="43.235702" lon="-4.825111">
        <ele>689.411532</ele>
        <time>2026-07-14T21:02:24.357Z</time>
      </trkpt>
      <trkpt lat="43.235467" lon="-4.824528">
        <ele>685.795506</ele>
        <time>2026-07-14T21:03:18.710Z</time>
      </trkpt>
      <trkpt lat="43.235380" lon="-4.824374">
        <ele>684.737888</ele>
        <time>2026-07-14T21:03:35.781Z</time>
      </trkpt>
      <trkpt lat="43.235187" lon="-4.824230">
        <ele>683.101490</ele>
        <time>2026-07-14T21:04:02.413Z</time>
      </trkpt>
      <trkpt lat="43.235095" lon="-4.823985">
        <ele>681.266699</ele>
        <time>2026-07-14T21:04:26.917Z</time>
      </trkpt>
      <trkpt lat="43.235092" lon="-4.823898">
        <ele>680.508171</ele>
        <time>2026-07-14T21:04:34.707Z</time>
      </trkpt>
      <trkpt lat="43.235171" lon="-4.823660">
        <ele>678.230448</ele>
        <time>2026-07-14T21:04:57.821Z</time>
      </trkpt>
      <trkpt lat="43.235223" lon="-4.823085">
        <ele>673.184370</ele>
        <time>2026-07-14T21:05:50.569Z</time>
      </trkpt>
      <trkpt lat="43.235242" lon="-4.822708">
        <ele>669.893253</ele>
        <time>2026-07-14T21:06:25.485Z</time>
      </trkpt>
      <trkpt lat="43.235168" lon="-4.822395">
        <ele>667.027415</ele>
        <time>2026-07-14T21:06:55.899Z</time>
      </trkpt>
      <trkpt lat="43.235040" lon="-4.822036">
        <ele>663.546569</ele>
        <time>2026-07-14T21:07:33.244Z</time>
      </trkpt>
      <trkpt lat="43.235011" lon="-4.821748">
        <ele>661.014542</ele>
        <time>2026-07-14T21:07:59.272Z</time>
      </trkpt>
      <trkpt lat="43.235072" lon="-4.821553">
        <ele>660.665357</ele>
        <time>2026-07-14T21:08:17.522Z</time>
      </trkpt>
      <trkpt lat="43.235236" lon="-4.821414">
        <ele>660.665357</ele>
        <time>2026-07-14T21:08:39.768Z</time>
      </trkpt>
      <trkpt lat="43.235323" lon="-4.821261">
        <ele>660.665357</ele>
        <time>2026-07-14T21:08:55.920Z</time>
      </trkpt>
      <trkpt lat="43.235313" lon="-4.820903">
        <ele>660.665357</ele>
        <time>2026-07-14T21:09:26.022Z</time>
      </trkpt>
      <trkpt lat="43.235256" lon="-4.820623">
        <ele>660.665357</ele>
        <time>2026-07-14T21:09:49.901Z</time>
      </trkpt>
      <trkpt lat="43.235300" lon="-4.820330">
        <ele>660.665357</ele>
        <time>2026-07-14T21:10:14.111Z</time>
      </trkpt>
      <trkpt lat="43.235311" lon="-4.820246">
        <ele>660.665357</ele>
        <time>2026-07-14T21:10:20.814Z</time>
      </trkpt>
      <trkpt lat="43.235301" lon="-4.820084">
        <ele>660.665357</ele>
        <time>2026-07-14T21:10:33.610Z</time>
      </trkpt>
      <trkpt lat="43.235275" lon="-4.819796">
        <ele>660.665357</ele>
        <time>2026-07-14T21:10:55.656Z</time>
      </trkpt>
      <trkpt lat="43.235313" lon="-4.819771">
        <ele>660.665357</ele>
        <time>2026-07-14T21:11:00.136Z</time>
      </trkpt>
    </trkseg>
  </trk>
</gpx>